Code,Name,Zip,Address,Tel
01100,札幌市,060-8611,北海道札幌市中央区北1条西2丁目,011-211-2111
01202,函館市,040-8666,北海道函館市東雲町4-13,0138-21-3111
01203,小樽市,047-8660,北海道小樽市花園2-12-1,0134-32-4111
01204,旭川市,070-8525,北海道旭川市6条通9丁目,0166-26-1111
01205,室蘭市,051-8511,北海道室蘭市幸町1-2,0143-22-1111
01206,釧路市,085-8505,北海道釧路市黒金町7-5,0154-23-5151
01207,帯広市,080-8670,北海道帯広市西5条南7-1,0155-24-4111
01208,北見市,090-8509,北海道北見市大通西3丁目1-1,0157-23-7111
01209,夕張市,068-0492,北海道夕張市本町4-2,0123-52-3131
01210,岩見沢市,068-8686,北海道岩見沢市鳩が丘1-1-1,0126-23-4111
01211,網走市,093-8555,北海道網走市南6条東4丁目,0152-44-6111
01212,留萌市,077-8601,北海道留萌市幸町1-11,0164-42-1801
01213,苫小牧市,053-8722,北海道苫小牧市旭町4-5-6,0144-32-6111
01214,稚内市,097-8686,北海道稚内市中央3-13-15,0162-23-6161
01215,美唄市,072-8660,北海道美唄市西3条南1-1-1,0126-62-3131
01216,芦別市,075-8711,北海道芦別市北1条東1-3,0124-22-2111
01217,江別市,067-8674,北海道江別市高砂町6,011-382-4141
01218,赤平市,079-1192,北海道赤平市泉町4-1,0125-32-2211
01219,紋別市,094-8707,北海道紋別市幸町2-1-18,0158-24-2111
01220,士別市,095-8686,北海道士別市東6条4-1,0165-23-3121
01221,名寄市,096-8686,北海道名寄市大通南1-1,01654-3-2111
01222,三笠市,068-2192,北海道三笠市幸町2,01267-2-3181
01223,根室市,087-8711,北海道根室市常盤町2-27,0153-23-6111
01224,千歳市,066-8686,北海道千歳市東雲町2-34,0123-24-3131
01225,滝川市,073-8686,北海道滝川市大町1-2-15,0125-23-1234
01226,砂川市,073-0195,北海道砂川市西7条北2丁目1-1,0125-54-2121
01227,歌志内市,073-0492,北海道歌志内市字本町5,0125-42-3211
01228,深川市,074-8650,北海道深川市2条17-17,0164-26-2228
01229,富良野市,076-8555,北海道富良野市弥生町1-1,0167-39-2300
01230,登別市,059-8701,北海道登別市中央町6-11,0143-85-2111
01231,恵庭市,061-1498,北海道恵庭市京町1,0123-33-3131
01233,伊達市,052-0024,北海道伊達市鹿島町20-1,0142-23-3331
01234,北広島市,061-1192,北海道北広島市中央4-2-1,011-372-3311
01235,石狩市,061-3292,北海道石狩市花川北6条1-30-2,0133-72-3111
01236,北斗市,049-0192,北海道北斗市中央1-3-10,0138-73-3111
01303,当別町,061-0292,北海道石狩郡当別町白樺町58-9,0133-23-2330
01304,新篠津村,068-1192,北海道石狩郡新篠津村第47線北13,0126-57-2111
01331,松前町,049-1592,北海道松前郡松前町字福山248番地1,0139-42-2275
01332,福島町,049-1392,北海道松前郡福島町字福島820,0139-47-3001
01333,知内町,049-1103,北海道上磯郡知内町字重内21-1,01392-5-6161
01334,木古内町,049-0422,北海道上磯郡木古内町字本町218,01392-2-3131
01337,七飯町,041-1192,北海道亀田郡七飯町本町6丁目1-1,0138-65-2511
01343,鹿部町,041-1498,北海道茅部郡鹿部町字鹿部252番地1,01372-7-2111
01345,森町,049-2393,北海道茅部郡森町字御幸町144-1,01374-2-2181
01346,八雲町,049-3192,北海道二海郡八雲町住初町138,0137-62-2111
01347,長万部町,049-3592,北海道山越郡長万部町字長万部453-1,01377-2-2000
01361,江差町,043-8560,北海道檜山郡江差町字中歌町193-1,0139-52-1020
01362,上ノ国町,049-0698,北海道檜山郡上ノ国町字大留100,0139-55-2311
01363,厚沢部町,043-1113,北海道檜山郡厚沢部町新町207,0139-64-3311
01364,乙部町,043-0103,北海道爾志郡乙部町字緑町388,0139-62-2311
01367,奥尻町,043-1498,北海道奥尻郡奥尻町字奥尻806,01397-2-3111
01370,今金町,049-4393,北海道瀬棚郡今金町字今金48-1,0137-82-0111
01371,せたな町,049-4592,北海道久遠郡せたな町北檜山区徳島63-1,0137-84-5111
01391,島牧村,048-0621,北海道島牧郡島牧村字泊83-1,0136-75-6211
01392,寿都町,048-0406,北海道寿都郡寿都町字渡島町140-1,0136-62-2511
01393,黒松内町,048-0192,北海道寿都郡黒松内町字黒松内302-1,0136-72-3311
01394,蘭越町,048-1392,北海道磯谷郡蘭越町蘭越町258-5,0136-57-5111
01395,ニセコ町,048-1595,北海道虻田郡ニセコ町字富士見55番地,0136-44-2121
01396,真狩村,048-1631,北海道虻田郡真狩村字真狩118,0136-45-2121
01397,留寿都村,048-1731,北海道虻田郡留寿都村字留寿都175,0136-46-3131
01398,喜茂別町,044-0292,北海道虻田郡喜茂別町字喜茂別123,0136-33-2211
01399,京極町,044-0101,北海道虻田郡京極町字京極527,0136-42-2111
01400,倶知安町,044-0001,北海道虻田郡倶知安町北1条東3-3,0136-22-1121
01401,共和町,048-2292,北海道岩内郡共和町南幌似38-2,0135-73-2011
01402,岩内町,045-8555,北海道岩内郡岩内町字高台134-1,0135-62-1011
01403,泊村,045-0202,北海道古宇郡泊村大字茅沼村字臼別191-7,0135-75-2021
01404,神恵内村,045-0301,北海道古宇郡神恵内村大字神恵内村81番地20,0135-76-5011
01405,積丹町,046-0292,北海道積丹郡積丹町大字美国町字船澗48,0135-44-2111
01406,古平町,046-0192,北海道古平郡古平町大字浜町50番地,0135-48-9836
01407,仁木町,048-2492,北海道余市郡仁木町西町1-36-1,0135-32-2511
01408,余市町,046-8546,北海道余市郡余市町朝日町26,0135-21-2111
01409,赤井川村,046-0592,北海道余市郡赤井川村字赤井川74-2,0135-34-6211
01423,南幌町,069-0292,北海道空知郡南幌町栄町3-2-1,011-378-2121
01424,奈井江町,079-0392,北海道空知郡奈井江町字奈井江11,0125-65-2111
01425,上砂川町,073-0292,北海道空知郡上砂川町字上砂川町40-10,0125-62-2011
01427,由仁町,069-1292,北海道夕張郡由仁町新光200,0123-83-2111
01428,長沼町,069-1392,北海道夕張郡長沼町中央北1-1-1,0123-88-2111
01429,栗山町,069-1512,北海道夕張郡栗山町松風3-252,0123-72-1111
01430,月形町,061-0592,北海道樺戸郡月形町1219,0126-53-2321
01431,浦臼町,061-0692,北海道樺戸郡浦臼町字ウラウスナイ183-15,0125-68-2111
01432,新十津川町,073-1103,北海道樺戸郡新十津川町字中央301-1,0125-76-2131
01433,妹背牛町,079-0592,北海道雨竜郡妹背牛町字妹背牛5200,0164-32-2411
01434,秩父別町,078-2192,北海道雨竜郡秩父別町4101,0164-33-2111
01436,雨竜町,078-2692,北海道雨竜郡雨竜町字フシコウリウ104,0125-77-2211
01437,北竜町,078-2512,北海道雨竜郡北竜町字和11-1,0164-34-2111
01438,沼田町,078-2202,北海道雨竜郡沼田町南1条3-6-53,0164-35-2111
01452,鷹栖町,071-1292,北海道上川郡鷹栖町南1条3丁目5番1号,0166-87-2111
01453,東神楽町,071-1592,北海道上川郡東神楽町南1条西1丁目3-2,0166-83-2111
01454,当麻町,078-1393,北海道上川郡当麻町3条東2丁目11-1,0166-84-2111
01455,比布町,078-0392,北海道上川郡比布町北町1-2-1,0166-85-2111
01456,愛別町,078-1492,北海道上川郡愛別町字本町179,01658-6-5111
01457,上川町,078-1753,北海道上川郡上川町南町180,01658-2-1211
01458,東川町,071-1492,北海道上川郡東川町東町1-16-1,0166-82-2111
01459,美瑛町,071-0292,北海道上川郡美瑛町本町4-6-1,0166-92-1111
01460,上富良野町,071-0596,北海道空知郡上富良野町大町2-2-11,0167-45-6400
01461,中富良野町,071-0795,北海道空知郡中富良野町本町9-1,0167-44-2122
01462,南富良野町,079-2402,北海道空知郡南富良野町字幾寅867,0167-52-2112
01463,占冠村,079-2201,北海道勇払郡占冠村字中央,0167-56-2121
01464,和寒町,098-0192,北海道上川郡和寒町字西町120,0165-32-2421
01465,剣淵町,098-0392,北海道上川郡剣淵町仲町37-1,0165-34-2121
01468,下川町,098-1206,北海道上川郡下川町幸町63,01655-4-2511
01469,美深町,098-2252,北海道中川郡美深町字西町18,01656-2-1611
01470,音威子府村,098-2501,北海道中川郡音威子府村字音威子府444-1,01656-5-3311
01471,中川町,098-2892,北海道中川郡中川町字中川337,01656-7-2811
01472,幌加内町,074-0492,北海道雨竜郡幌加内町字幌加内4699,0165-35-2121
01481,増毛町,077-0292,北海道増毛郡増毛町弁天町3-61,0164-53-1111
01482,小平町,078-3392,北海道留萌郡小平町字小平町216,0164-56-2111
01483,苫前町,078-3792,北海道苫前郡苫前町字旭37-1,0164-64-2211
01484,羽幌町,078-4198,北海道苫前郡羽幌町南町1-1,0164-62-1211
01485,初山別村,078-4492,北海道苫前郡初山別村字初山別96-1,0164-67-2211
01486,遠別町,098-3543,北海道天塩郡遠別町字本町3-37,01632-7-2111
01487,天塩町,098-3398,北海道天塩郡天塩町新栄通8丁目,01632-2-1001
01511,猿払村,098-6232,北海道宗谷郡猿払村鬼志別西町172-1,01635-2-3131
01512,浜頓別町,098-5792,北海道枝幸郡浜頓別町中央南1,01634-2-2345
01513,中頓別町,098-5595,北海道枝幸郡中頓別町字中頓別172-6,01634-6-1111
01514,枝幸町,098-5892,北海道枝幸郡枝幸町本町916,0163-62-1234
01516,豊富町,098-4110,北海道天塩郡豊富町大通6丁目,0162-82-1001
01517,礼文町,097-1201,北海道礼文郡礼文町大字香深村字トンナイ558-5,0163-86-1001
01518,利尻町,097-0401,北海道利尻郡利尻町沓形字緑町14-1,0163-84-2345
01519,利尻富士町,097-0101,北海道利尻郡利尻富士町鴛泊字富士野6,0163-82-1111
01520,幌延町,098-3207,北海道天塩郡幌延町宮園町1番地1,01632-5-1111
01543,美幌町,092-8650,北海道網走郡美幌町字東2条北2-25,0152-73-1111
01544,津別町,092-0292,北海道網走郡津別町字幸町41,0152-76-2151
01545,斜里町,099-4192,北海道斜里郡斜里町本町12,0152-23-3131
01546,清里町,099-4492,北海道斜里郡清里町羽衣町13,0152-25-2131
01547,小清水町,099-3698,北海道斜里郡小清水町元町2-1-1,0152-62-2311
01549,訓子府町,099-1498,北海道常呂郡訓子府町東町398,0157-47-2111
01550,置戸町,099-1100,北海道常呂郡置戸町字置戸181,0157-52-3311
01552,佐呂間町,093-0592,北海道常呂郡佐呂間町字永代町3-1,01587-2-1211
01555,遠軽町,099-0492,北海道紋別郡遠軽町1条通北3-1-1,0158-42-4811
01559,湧別町,099-6592,北海道紋別郡湧別町上湧別屯田市街地318,01586-2-2111
01560,滝上町,099-5692,北海道紋別郡滝上町字滝ノ上市街地4条通2-1,0158-29-2111
01561,興部町,098-1692,北海道紋別郡興部町字興部710,0158-82-2131
01562,西興部村,098-1501,北海道紋別郡西興部村字西興部100,0158-87-2111
01563,雄武町,098-1792,北海道紋別郡雄武町本町,0158-84-2121
01564,大空町,099-2392,北海道網走郡大空町女満別西3条4丁目1-1,0152-74-2111
01571,豊浦町,049-5492,北海道虻田郡豊浦町字船見町10,0142-83-2121
01575,壮瞥町,052-0101,北海道有珠郡壮瞥町字滝之町287-7,0142-66-2121
01578,白老町,059-0995,北海道白老郡白老町大町1-1-1,0144-82-2121
01581,厚真町,059-1692,北海道勇払郡厚真町京町120,0145-27-2321
01584,洞爺湖町,049-5692,北海道虻田郡洞爺湖町栄町58,0142-76-2121
01585,安平町,059-1595,北海道勇払郡安平町早来大町95,0145-22-2511
01586,むかわ町,054-8660,北海道勇払郡むかわ町美幸2-88,0145-42-2411
01601,日高町,059-2192,北海道沙流郡日高町門別本町210-1,01456-2-5131
01602,平取町,055-0192,北海道沙流郡平取町本町28,01457-2-2221
01604,新冠町,059-2492,北海道新冠郡新冠町字北星町3-2,0146-47-2111
01607,浦河町,057-8511,北海道浦河郡浦河町築地1-3-1,0146-22-2311
01608,様似町,058-8501,北海道様似郡様似町大通1-21,0146-36-2111
01609,えりも町,058-0292,北海道幌泉郡えりも町字本町206,01466-2-2111
01610,新ひだか町,056-8650,北海道日高郡新ひだか町静内御幸町3丁目2-50,0146-43-2111
01631,音更町,080-0198,北海道河東郡音更町元町2,0155-42-2111
01632,士幌町,080-1200,北海道河東郡士幌町字士幌225,01564-5-2211
01633,上士幌町,080-1492,北海道河東郡上士幌町字上士幌東3線238,01564-2-2111
01634,鹿追町,081-0292,北海道河東郡鹿追町東町1-15-1,0156-66-2311
01635,新得町,081-8501,北海道上川郡新得町3条南4-26,0156-64-5111
01636,清水町,089-0192,北海道上川郡清水町南4条2-2,0156-62-2111
01637,芽室町,082-8651,北海道河西郡芽室町東2条2-14,0155-62-9720
01638,中札内村,089-1392,北海道河西郡中札内村東1条南1丁目2番地1,0155-67-2311
01639,更別村,089-1595,北海道河西郡更別村字更別南1線93,0155-52-2111
01641,大樹町,089-2195,北海道広尾郡大樹町東本通33,01558-6-2111
01642,広尾町,089-2692,北海道広尾郡広尾町西4条7-1,01558-2-2111
01643,幕別町,089-0692,北海道中川郡幕別町本町130-1,0155-54-2111
01644,池田町,083-8650,北海道中川郡池田町西1条7-11,015-572-3111
01645,豊頃町,089-5392,北海道中川郡豊頃町茂岩本町125,015-574-2211
01646,本別町,089-3392,北海道中川郡本別町北2-4-1,0156-22-2141
01647,足寄町,089-3797,北海道足寄郡足寄町北1条4-48-1,0156-25-2141
01648,陸別町,089-4311,北海道足寄郡陸別町字陸別東1条3-1,0156-27-2141
01649,浦幌町,089-5692,北海道十勝郡浦幌町字桜町15-6,015-576-2111
01661,釧路町,088-0692,北海道釧路郡釧路町別保1-1,0154-62-2111
01662,厚岸町,088-1192,北海道厚岸郡厚岸町真栄3丁目1番地,0153-52-3131
01663,浜中町,088-1592,北海道厚岸郡浜中町湯沸445番地,0153-62-2111
01664,標茶町,088-2312,北海道川上郡標茶町川上4-2,015-485-2111
01665,弟子屈町,088-3292,北海道川上郡弟子屈町中央2-3-1,015-482-2191
01667,鶴居村,085-1203,北海道阿寒郡鶴居村鶴居西1-1,0154-64-2111
01668,白糠町,088-0392,北海道白糠郡白糠町西1条南1-1-1,01547-2-2171
01691,別海町,086-0205,北海道野付郡別海町別海常盤町280,0153-75-2111
01692,中標津町,086-1197,北海道標津郡中標津町丸山2-22,0153-73-3111
01693,標津町,086-1632,北海道標津郡標津町北2条西1-1-3,0153-82-2131
01694,羅臼町,086-1892,北海道目梨郡羅臼町栄町100-83,0153-87-2111
02201,青森市,030-8555,青森県青森市中央1-22-5,017-734-1111
02202,弘前市,036-8551,青森県弘前市大字上白銀町1-1,0172-35-1111
02203,八戸市,031-8686,青森県八戸市内丸1-1-1,0178-43-2111
02204,黒石市,036-0396,青森県黒石市大字市ノ町11-1,0172-52-2111
02205,五所川原市,037-8686,青森県五所川原市字布屋町41-1,0173-35-2111
02206,十和田市,034-8615,青森県十和田市西十二番町6-1,0176-23-5111
02207,三沢市,033-8666,青森県三沢市桜町1-1-38,0176-53-5111
02208,むつ市,035-8686,青森県むつ市中央1丁目8-1,0175-22-1111
02209,つがる市,038-3192,青森県つがる市木造若緑61-1,0173-42-2111
02210,平川市,036-0104,青森県平川市柏木町藤山25-6,0172-44-1111
02301,平内町,039-3393,青森県東津軽郡平内町大字小湊字小湊63,017-755-2111
02303,今別町,030-1502,青森県東津軽郡今別町大字今別字今別167,0174-35-2001
02304,蓬田村,030-1211,青森県東津軽郡蓬田村大字蓬田字汐越1-3,0174-27-2111
02307,外ヶ浜町,030-1393,青森県東津軽郡外ヶ浜町字蟹田高銅屋44-2,0174-31-1111
02321,鰺ヶ沢町,038-2792,青森県西津軽郡鰺ヶ沢町大字舞戸町字鳴戸321番地,0173-72-2111
02323,深浦町,038-2324,青森県西津軽郡深浦町大字深浦字苗代沢84-2,0173-74-2111
02343,西目屋村,036-1492,青森県中津軽郡西目屋村大字田代字神田57,0172-85-2111
02361,藤崎町,038-3803,青森県南津軽郡藤崎町大字西豊田1-1,0172-75-3111
02362,大鰐町,038-0292,青森県南津軽郡大鰐町大字大鰐字羽黒館5-3,0172-48-2111
02367,田舎館村,038-1113,青森県南津軽郡田舎館村大字田舎館字中辻123-1,0172-58-2111
02381,板柳町,038-3692,青森県北津軽郡板柳町大字板柳字土井239-3,0172-73-2111
02384,鶴田町,038-3595,青森県北津軽郡鶴田町大字鶴田字早瀬200-1,0173-22-2111
02387,中泊町,037-0392,青森県北津軽郡中泊町大字中里字紅葉坂209,0173-57-2111
02401,野辺地町,039-3131,青森県上北郡野辺地町字野辺地123-1,0175-64-2111
02402,七戸町,039-2792,青森県上北郡七戸町字森ノ上131-4,0176-68-2111
02405,六戸町,039-2392,青森県上北郡六戸町大字犬落瀬字前谷地60,0176-55-3111
02406,横浜町,039-4145,青森県上北郡横浜町字寺下35,0175-78-2111
02408,東北町,039-2492,青森県上北郡東北町上北南4-32-484,0176-56-3111
02411,六ヶ所村,039-3212,青森県上北郡六ヶ所村大字尾駮字野附475,0175-72-2111
02412,おいらせ町,039-2192,青森県上北郡おいらせ町中下田135-2,0178-56-2111
02423,大間町,039-4692,青森県下北郡大間町大字大間字奥戸下道20-4,0175-37-2111
02424,東通村,039-4292,青森県下北郡東通村大字砂子又字沢内5-34,0175-27-2111
02425,風間浦村,039-4502,青森県下北郡風間浦村大字易国間字大川目28-5,0175-35-2111
02426,佐井村,039-4711,青森県下北郡佐井村大字佐井字糠森20,0175-38-2111
02441,三戸町,039-0198,青森県三戸郡三戸町大字在府小路町43,0179-20-1111
02442,五戸町,039-1513,青森県三戸郡五戸町字古舘21-1,0178-62-2111
02443,田子町,039-0292,青森県三戸郡田子町大字田子字天神堂平81,0179-20-7111
02445,南部町,039-0892,青森県三戸郡南部町大字平字広場28-1,0178-84-2111
02446,階上町,039-1201,青森県三戸郡階上町大字道仏字天当平1-87,0178-88-2111
02450,新郷村,039-1801,青森県三戸郡新郷村大字戸来字風呂前10,0178-78-2111
03201,盛岡市,020-8530,岩手県盛岡市内丸12-2,019-651-4111
03202,宮古市,027-8501,岩手県宮古市宮町1-1-30,0193-62-2111
03203,大船渡市,022-8501,岩手県大船渡市盛町字宇津野沢15,0192-27-3111
03205,花巻市,025-8601,岩手県花巻市花城町9-30,0198-24-2111
03206,北上市,024-8501,岩手県北上市芳町1-1,0197-64-2111
03207,久慈市,028-8030,岩手県久慈市川崎町1-1,0194-52-2111
03208,遠野市,028-0592,岩手県遠野市中央通り9-1,0198-62-2111
03209,一関市,021-8501,岩手県一関市竹山町7-2,0191-21-2111
03210,陸前高田市,029-2292,岩手県陸前高田市高田町字下和野1番地,0192-54-2111
03211,釜石市,026-8686,岩手県釜石市只越町3-9-13,0193-22-2111
03213,二戸市,028-6192,岩手県二戸市福岡字川又47,0195-23-3111
03214,八幡平市,028-7397,岩手県八幡平市野駄21-170,0195-74-2111
03215,奥州市,023-8501,岩手県奥州市水沢大手町1-1,0197-24-2111
03216,滝沢市,020-0692,岩手県滝沢市中鵜飼55,019-684-2111
03301,雫石町,020-0595,岩手県岩手郡雫石町千刈田5-1,019-692-2111
03302,葛巻町,028-5495,岩手県岩手郡葛巻町葛巻16-1-1,0195-66-2111
03303,岩手町,028-4395,岩手県岩手郡岩手町大字五日市10-44,0195-62-2111
03321,紫波町,028-3392,岩手県紫波郡紫波町紫波中央駅前2-3-1,019-672-2111
03322,矢巾町,028-3692,岩手県紫波郡矢巾町大字南矢幅第13地割123番地,019-697-2111
03366,西和賀町,029-5512,岩手県和賀郡西和賀町川尻40地割40番地71,0197-82-2111
03381,金ケ崎町,029-4592,岩手県胆沢郡金ケ崎町西根南町22-1,0197-42-2111
03402,平泉町,029-4192,岩手県西磐井郡平泉町平泉字志羅山45-2,0191-46-2111
03441,住田町,029-2396,岩手県気仙郡住田町世田米字川向88-1,0192-46-2111
03461,大槌町,028-1115,岩手県上閉伊郡大槌町上町1番3号,0193-42-2111
03482,山田町,028-1392,岩手県下閉伊郡山田町八幡町3-20,0193-82-3111
03483,岩泉町,027-0595,岩手県下閉伊郡岩泉町岩泉字惣畑59-5,0194-22-2111
03484,田野畑村,028-8407,岩手県下閉伊郡田野畑村田野畑143-1,0194-34-2111
03485,普代村,028-8392,岩手県下閉伊郡普代村第9地割字銅屋13-2,0194-35-2111
03501,軽米町,028-6302,岩手県九戸郡軽米町大字軽米10-85,0195-46-2111
03503,野田村,028-8201,岩手県九戸郡野田村大字野田第20地割14,0194-78-2111
03506,九戸村,028-6502,岩手県九戸郡九戸村大字伊保内第10地割11番地6,0195-42-2111
03507,洋野町,028-7995,岩手県九戸郡洋野町種市23-27,0194-65-2111
03524,一戸町,028-5311,岩手県二戸郡一戸町高善寺字大川鉢24-9,0195-33-2111
04100,仙台市,980-8671,宮城県仙台市青葉区国分町3-7-1,022-261-1111
04101,青葉区,980-8701,宮城県仙台市青葉区上杉1-5-1,022-225-7211
04102,宮城野区,983-8601,宮城県仙台市宮城野区五輪2-12-35,022-291-2111
04103,若林区,984-8601,宮城県仙台市若林区保春院前丁3-1,022-282-1111
04104,太白区,982-8601,宮城県仙台市太白区長町南3-1-15,022-247-1111
04105,泉区,981-3189,宮城県仙台市泉区泉中央2-1-1,022-372-3111
04202,石巻市,986-8501,宮城県石巻市穀町14-1,0225-95-1111
04203,塩竈市,985-8501,宮城県塩竈市旭町1-1,022-364-1111
04205,気仙沼市,988-8501,宮城県気仙沼市八日町1-1-1,0226-22-6600
04206,白石市,989-0292,宮城県白石市大手町1-1,0224-25-2111
04207,名取市,981-1292,宮城県名取市増田字柳田80,022-384-2111
04208,角田市,981-1592,宮城県角田市角田字大坊41,0224-63-2111
04209,多賀城市,985-8531,宮城県多賀城市中央2-1-1,022-368-1141
04211,岩沼市,989-2480,宮城県岩沼市桜1-6-20,0223-22-1111
04212,登米市,987-0511,宮城県登米市迫町佐沼字中江2-6-1,0220-22-2111
04213,栗原市,987-2293,宮城県栗原市築館薬師1-7-1,0228-22-1122
04214,東松島市,981-0503,宮城県東松島市矢本字上河戸36-1,0225-82-1111
04215,大崎市,989-6188,宮城県大崎市古川七日町1-1,0229-23-2111
04216,富谷市,981-3392,宮城県富谷市富谷坂松田30,022-358-3111
04301,蔵王町,989-0892,宮城県刈田郡蔵王町大字円田字西浦北10,0224-33-2211
04302,七ケ宿町,989-0592,宮城県刈田郡七ケ宿町字関126,0224-37-2111
04321,大河原町,989-1295,宮城県柴田郡大河原町字新南19,0224-53-2111
04322,村田町,989-1392,宮城県柴田郡村田町大字村田字迫6,0224-83-2111
04323,柴田町,989-1692,宮城県柴田郡柴田町船岡中央2-3-45,0224-55-2111
04324,川崎町,989-1592,宮城県柴田郡川崎町大字前川字裏丁175-1,0224-84-2111
04341,丸森町,981-2192,宮城県伊具郡丸森町字鳥屋120,0224-72-2111
04361,亘理町,989-2393,宮城県亘理郡亘理町字悠里1番地,0223-34-1111
04362,山元町,989-2292,宮城県亘理郡山元町浅生原字作田山32,0223-37-1111
04401,松島町,981-0215,宮城県宮城郡松島町高城字帰命院下一19-1,022-354-5701
04404,七ヶ浜町,985-8577,宮城県宮城郡七ヶ浜町東宮浜字丑谷辺5-1,022-357-2111
04406,利府町,981-0112,宮城県宮城郡利府町利府字新並松4,022-767-2111
04421,大和町,981-3680,宮城県黒川郡大和町吉岡まほろば1-1-1,022-345-1111
04422,大郷町,981-3592,宮城県黒川郡大郷町粕川字西長崎5-8,022-359-3111
04424,大衡村,981-3692,宮城県黒川郡大衡村大衡字平林62,022-345-5111
04444,色麻町,981-4122,宮城県加美郡色麻町四竃字北谷地41,0229-65-2111
04445,加美町,981-4292,宮城県加美郡加美町字西田3-5,0229-63-3111
04501,涌谷町,987-0192,宮城県遠田郡涌谷町字新町裏153-2,0229-43-2111
04505,美里町,987-8602,宮城県遠田郡美里町北浦字駒米13,0229-33-2111
04581,女川町,986-2265,宮城県牡鹿郡女川町女川1-1-1,0225-54-3131
04606,南三陸町,986-0725,宮城県本吉郡南三陸町志津川字沼田101,0226-46-2600
05201,秋田市,010-8560,秋田県秋田市山王1-1-1,018-863-2222
05202,能代市,016-8501,秋田県能代市上町1-3,0185-52-2111
05203,横手市,013-8601,秋田県横手市中央町8-2,0182-35-2111
05204,大館市,017-8555,秋田県大館市字中城20,0186-49-3111
05206,男鹿市,010-0595,秋田県男鹿市船川港船川字泉台66-1,0185-23-2111
05207,湯沢市,012-8501,秋田県湯沢市佐竹町1-1,0183-73-2111
05209,鹿角市,018-5292,秋田県鹿角市花輪字荒田4-1,0186-30-0203
05210,由利本荘市,015-8501,秋田県由利本荘市尾崎17,0184-24-3321
05211,潟上市,010-0201,秋田県潟上市天王字棒沼台226-1,018-853-5301
05212,大仙市,014-8601,秋田県大仙市大曲花園町1-1,0187-63-1111
05213,北秋田市,018-3392,秋田県北秋田市花園町19-1,0186-62-1111
05214,にかほ市,018-0192,秋田県にかほ市象潟町字浜ノ田1,0184-43-3200
05215,仙北市,014-1298,秋田県仙北市田沢湖生保内字宮ノ後30,0187-43-1111
05303,小坂町,017-0292,秋田県鹿角郡小坂町小坂字上谷地41-1,0186-29-3901
05327,上小阿仁村,018-4494,秋田県北秋田郡上小阿仁村小沢田字向川原118,0186-77-2221
05346,藤里町,018-3201,秋田県山本郡藤里町藤琴字藤琴8,0185-79-2111
05348,三種町,018-2401,秋田県山本郡三種町鵜川字岩谷子8,0185-85-2111
05349,八峰町,018-2502,秋田県山本郡八峰町峰浜目名潟字目長田118,0185-76-2111
05361,五城目町,018-1792,秋田県南秋田郡五城目町西磯ノ目1-1-1,018-852-5100
05363,八郎潟町,018-1692,秋田県南秋田郡八郎潟町字大道80,018-875-5800
05366,井川町,018-1596,秋田県南秋田郡井川町北川尻字海老沢樋ノ口78-1,018-874-4411
05368,大潟村,010-0494,秋田県南秋田郡大潟村字中央1-1,0185-45-2111
05434,美郷町,019-1541,秋田県仙北郡美郷町土崎字上野乙170-10,0187-84-1111
05463,羽後町,012-1131,秋田県雄勝郡羽後町西馬音内字中野177,0183-62-2111
05464,東成瀬村,019-0801,秋田県雄勝郡東成瀬村田子内字仙人下30-1,0182-47-3401
06201,山形市,990-8540,山形県山形市旅篭町2-3-25,023-641-1212
06202,米沢市,992-8501,山形県米沢市金池5-2-25,0238-22-5111
06203,鶴岡市,997-8601,山形県鶴岡市馬場町9-25,0235-25-2111
06204,酒田市,998-8540,山形県酒田市本町2-2-45,0234-22-5111
06205,新庄市,996-8501,山形県新庄市沖の町10-37,0233-22-2111
06206,寒河江市,991-8601,山形県寒河江市中央1-9-45,0237-86-2111
06207,上山市,999-3192,山形県上山市河崎1-1-10,023-672-1111
06208,村山市,995-8666,山形県村山市中央1-3-6,0237-55-2111
06209,長井市,993-8601,山形県長井市栄町1188番地6,0238-87-0682
06210,天童市,994-8510,山形県天童市老野森1-1-1,023-654-1111
06211,東根市,999-3795,山形県東根市中央1-1-1,0237-42-1111
06212,尾花沢市,999-4292,山形県尾花沢市若葉町1-2-3,0237-22-1111
06213,南陽市,999-2292,山形県南陽市三間通436-1,0238-40-3211
06301,山辺町,990-0392,山形県東村山郡山辺町緑ヶ丘5,023-667-1111
06302,中山町,990-0492,山形県東村山郡中山町長崎120,023-662-2111
06321,河北町,999-3511,山形県西村山郡河北町谷地戊81,0237-73-2111
06322,西川町,990-0792,山形県西村山郡西川町大字海味510,0237-74-2111
06323,朝日町,990-1442,山形県西村山郡朝日町大字宮宿1115,0237-67-2111
06324,大江町,990-1101,山形県西村山郡大江町大字左沢882-1,0237-62-2111
06341,大石田町,999-4112,山形県北村山郡大石田町緑町1,0237-35-2111
06361,金山町,999-5402,山形県最上郡金山町大字金山324-1,0233-52-2111
06362,最上町,999-6101,山形県最上郡最上町向町644,0233-43-2111
06363,舟形町,999-4601,山形県最上郡舟形町舟形263,0233-32-2111
06364,真室川町,999-5312,山形県最上郡真室川町大字新町124-4,0233-62-2111
06365,大蔵村,996-0212,山形県最上郡大蔵村大字清水2528,0233-75-2111
06366,鮭川村,999-5292,山形県最上郡鮭川村大字佐渡2003-7,0233-55-2111
06367,戸沢村,999-6401,山形県最上郡戸沢村大字古口270,0233-72-2111
06381,高畠町,992-0392,山形県東置賜郡高畠町大字高畠436,0238-52-1111
06382,川西町,999-0193,山形県東置賜郡川西町大字上小松977番地1,0238-42-2111
06401,小国町,999-1363,山形県西置賜郡小国町大字小国小坂町2-70,0238-62-2111
06402,白鷹町,992-0892,山形県西置賜郡白鷹町大字荒砥甲833,0238-85-2111
06403,飯豊町,999-0696,山形県西置賜郡飯豊町大字椿2888,0238-72-2111
06426,三川町,997-1301,山形県東田川郡三川町大字横山字西田85,0235-66-3111
06428,庄内町,999-7781,山形県東田川郡庄内町余目字町132-1,0234-43-2211
06461,遊佐町,999-8301,山形県遊佐町遊佐字舞鶴202番地,0234-72-3311
07201,福島市,960-8601,福島県福島市五老内町3-1,024-535-1111
07202,会津若松市,965-8601,福島県会津若松市東栄町3-46,0242-39-1111
07203,郡山市,963-8601,福島県郡山市朝日1-23-7,024-924-2491
07204,いわき市,970-8686,福島県いわき市平字梅本21,0246-22-1111
07205,白河市,961-8602,福島県白河市八幡小路7-1,0248-22-1111
07207,須賀川市,962-8601,福島県須賀川市八幡町135,0248-75-1111
07208,喜多方市,966-8601,福島県喜多方市字御清水東7244-2,0241-24-5206
07209,相馬市,976-8601,福島県相馬市中村字北町63-3,0244-37-2120
07210,二本松市,964-8601,福島県二本松市金色403-1,0243-23-1111
07211,田村市,963-4393,福島県田村市船引町船引字畑添76-2,0247-81-2111
07212,南相馬市,975-8686,福島県南相馬市原町区本町2-27,0244-22-2111
07213,伊達市,960-0692,福島県伊達市保原町字舟橋180,024-575-1111
07214,本宮市,969-1192,福島県本宮市本宮字万世212,0243-33-1111
07301,桑折町,969-1692,福島県伊達郡桑折町大字谷地字道下22番地7,024-582-2111
07303,国見町,969-1792,福島県伊達郡国見町大字藤田字一丁田二1-7,024-585-2111
07308,川俣町,960-1492,福島県伊達郡川俣町字五百田30,024-566-2111
07322,大玉村,969-1392,福島県安達郡大玉村玉井字星内70,0243-48-3131
07342,鏡石町,969-0492,福島県岩瀬郡鏡石町不時沼345,0248-62-2111
07344,天栄村,962-0592,福島県岩瀬郡天栄村大字下松本字原畑78,0248-82-2111
07362,下郷町,969-5345,福島県南会津郡下郷町大字塩生字大石1000,0241-69-1122
07364,檜枝岐村,967-0525,福島県南会津郡檜枝岐村字下ノ原880,0241-75-2500
07367,只見町,968-0498,福島県南会津郡只見町大字只見字雨堤1039,0241-82-5210
07368,南会津町,967-0004,福島県南会津郡南会津町田島字後原甲3531-1,0241-62-6100
07402,北塩原村,966-0485,福島県耶麻郡北塩原村大字北山字姥ヶ作3151,0241-23-3111
07405,西会津町,969-4495,福島県耶麻郡西会津町野沢字下小屋上乙3308,0241-45-2211
07407,磐梯町,969-3392,福島県耶麻郡磐梯町大字磐梯字中ノ橋1855,0242-74-1221
07408,猪苗代町,969-3123,福島県耶麻郡猪苗代町字城南100,0242-62-2111
07421,会津坂下町,969-6592,福島県河沼郡会津坂下町字市中三番甲3662,0242-84-1503
07422,湯川村,969-3593,福島県河沼郡湯川村大字清水田字長瀞18,0241-27-8800
07423,柳津町,969-7201,福島県河沼郡柳津町大字柳津字下平乙234,0241-42-2112
07444,三島町,969-7511,福島県大沼郡三島町大字宮下字宮下350,0241-48-5511
07445,金山町,968-0011,福島県大沼郡金山町大字川口字谷地393,0241-54-5111
07446,昭和村,968-0103,福島県大沼郡昭和村大字下中津川字中島652,0241-57-2111
07447,会津美里町,969-6292,福島県大沼郡会津美里町字新布才地1番地,0242-55-1122
07461,西郷村,961-8501,福島県西白河郡西郷村大字熊倉字折口原40,0248-25-1111
07464,泉崎村,969-0101,福島県西白河郡泉崎村大字泉崎字八丸145,0248-53-2111
07465,中島村,961-0192,福島県西白河郡中島村大字滑津字中島西11-1,0248-52-2111
07466,矢吹町,969-0296,福島県西白河郡矢吹町一本木101,0248-42-2111
07481,棚倉町,963-6192,福島県東白川郡棚倉町大字棚倉字中居野33,0247-33-2111
07482,矢祭町,963-5192,福島県東白川郡矢祭町大字東舘字舘本66,0247-46-3131
07483,塙町,963-5492,福島県東白川郡塙町大字塙字大町3-21,0247-43-2111
07484,鮫川村,963-8401,福島県東白川郡鮫川村大字赤坂中野字新宿39-5,0247-49-3111
07501,石川町,963-7893,福島県石川郡石川町字長久保185-4,0247-26-2111
07502,玉川村,963-6392,福島県石川郡玉川村大字小高字中畷9,0247-57-3101
07503,平田村,963-8292,福島県石川郡平田村大字永田字切田116,0247-55-3111
07504,浅川町,963-6292,福島県石川郡浅川町大字浅川字背戸谷地112-15,0247-36-4121
07505,古殿町,963-8304,福島県石川郡古殿町大字松川字新桑原31,0247-53-3111
07521,三春町,963-7796,福島県田村郡三春町字大町1-2,0247-62-2111
07522,小野町,963-3492,福島県田村郡小野町大字小野新町字舘廻92,0247-72-2111
07541,広野町,979-0402,福島県双葉郡広野町大字下北迫字苗代替35,0240-27-2111
07542,楢葉町,979-0696,福島県双葉郡楢葉町大字北田字鐘突堂5-6,0240-25-2111
07543,富岡町,979-1192,福島県双葉郡富岡町大字本岡字王塚622-1,0240-22-2111
07544,川内村,979-1292,福島県双葉郡川内村大字上川内字早渡11-24,0240-38-2111
07545,大熊町,979-1306,福島県双葉郡大熊町大字大川原字南平1717,0120-26-3844
07546,双葉町,979-1495,福島県双葉郡双葉町大字長塚字町西73番地4,0240-33-2111
07547,浪江町,979-1592,福島県双葉郡浪江町大字幾世橋字六反田7-2,0240-34-2111
07548,葛尾村,979-1602,福島県双葉郡葛尾村大字落合字落合16,0240-29-2111
07561,新地町,979-2792,福島県相馬郡新地町谷地小屋字樋掛田30,0244-62-2111
07564,飯舘村,960-1892,福島県相馬郡飯舘村伊丹沢字伊丹沢580-1,0244-42-1611
08201,水戸市,310-8610,茨城県水戸市中央1-4-1,029-224-1111
08202,日立市,317-8601,茨城県日立市助川町1-1-1,0294-22-3111
08203,土浦市,300-8686,茨城県土浦市大和町9-1,029-826-1111
08204,古河市,306-0291,茨城県古河市下大野2248,0280-92-3111
08205,石岡市,315-8640,茨城県石岡市石岡1-1-1,0299-23-1111
08207,結城市,307-8501,茨城県結城市中央町二丁目3番地,0296-32-1111
08208,龍ケ崎市,301-8611,茨城県龍ケ崎市3710,0297-64-1111
08210,下妻市,304-8501,茨城県下妻市大字本城町2-22,0296-43-2111
08211,常総市,303-8501,茨城県常総市水海道諏訪町3222-3,0297-23-2111
08212,常陸太田市,313-8611,茨城県常陸太田市金井町3690,0294-72-3111
08214,高萩市,318-8511,茨城県高萩市本町1-100-1,0293-23-2111
08215,北茨城市,319-1592,茨城県北茨城市磯原町磯原1630,0293-43-1111
08216,笠間市,309-1792,茨城県笠間市中央3-2-1,0296-77-1101
08217,取手市,302-8585,茨城県取手市寺田5139,0297-74-2141
08219,牛久市,300-1292,茨城県牛久市中央3-15-1,029-873-2111
08220,つくば市,305-8555,茨城県つくば市研究学園1-1-1,029-883-1111
08221,ひたちなか市,312-8501,茨城県ひたちなか市東石川2-10-1,029-273-0111
08222,鹿嶋市,314-8655,茨城県鹿嶋市大字平井1187-1,0299-82-2911
08223,潮来市,311-2493,茨城県潮来市辻626,0299-63-1111
08224,守谷市,302-0198,茨城県守谷市大柏950-1,0297-45-1111
08225,常陸大宮市,319-2292,茨城県常陸大宮市中富町3135-6,0295-52-1111
08226,那珂市,311-0192,茨城県那珂市福田1819-5,029-298-1111
08227,筑西市,308-8616,茨城県筑西市丙360,0296-24-2111
08228,坂東市,306-0692,茨城県坂東市岩井4365,0297-35-2121
08229,稲敷市,300-0595,茨城県稲敷市犬塚1570-1,029-892-2000
08230,かすみがうら市,315-8512,茨城県かすみがうら市上土田461,0299-59-2111
08231,桜川市,309-1293,茨城県桜川市羽田1023,0296-58-5111
08232,神栖市,314-0192,茨城県神栖市溝口4991-5,0299-90-1111
08233,行方市,311-3892,茨城県行方市麻生1561-9,0299-72-0811
08234,鉾田市,311-1592,茨城県鉾田市鉾田1444-1,0291-33-2111
08235,つくばみらい市,300-2395,茨城県つくばみらい市福田195,0297-58-2111
08236,小美玉市,319-0192,茨城県小美玉市堅倉835,0299-48-1111
08302,茨城町,311-3192,茨城県東茨城郡茨城町大字小堤1080,029-292-1111
08309,大洗町,311-1392,茨城県東茨城郡大洗町磯浜町6881-275,029-267-5111
08310,城里町,311-4391,茨城県東茨城郡城里町大字石塚1428-25,029-288-3111
08341,東海村,319-1192,茨城県那珂郡東海村東海3-7-1,029-282-1711
08364,大子町,319-3521,茨城県久慈郡大子町大字北田気662番地,0295-72-1111
08442,美浦村,300-0492,茨城県稲敷郡美浦村大字受領1515,029-885-0340
08443,阿見町,300-0392,茨城県稲敷郡阿見町中央1-1-1,029-888-1111
08447,河内町,300-1392,茨城県稲敷郡河内町源清田1183,0297-84-2111
08521,八千代町,300-3592,茨城県結城郡八千代町大字菅谷1170,0296-48-1111
08542,五霞町,306-0392,茨城県猿島郡五霞町大字小福田1162-1,0280-84-1111
08546,境町,306-0495,茨城県猿島郡境町391-1,0280-81-1300
08564,利根町,300-1696,茨城県北相馬郡利根町布川841-1,0297-68-2211
09201,宇都宮市,320-8540,栃木県宇都宮市旭1-1-5,028-632-2222
09202,足利市,326-8601,栃木県足利市本城3-2145,0284-20-2222
09203,栃木市,328-8686,栃木県栃木市万町9-25,0282-22-3535
09204,佐野市,327-8501,栃木県佐野市高砂町1,0283-24-5111
09205,鹿沼市,322-8601,栃木県鹿沼市今宮町1688-1,0289-64-2111
09206,日光市,321-1292,栃木県日光市今市本町1,0288-22-1111
09208,小山市,323-8686,栃木県小山市中央町1-1-1,0285-23-1111
09209,真岡市,321-4395,栃木県真岡市荒町5191番地,0285-82-1111
09210,大田原市,324-8641,栃木県大田原市本町1-4-1,0287-23-1111
09211,矢板市,329-2192,栃木県矢板市本町5-4,0287-43-1111
09213,那須塩原市,325-8501,栃木県那須塩原市共墾社108-2,0287-62-7111
09214,さくら市,329-1392,栃木県さくら市氏家2771,028-681-1111
09215,那須烏山市,321-0692,栃木県那須烏山市中央1-1-1,0287-83-1111
09216,下野市,329-0492,栃木県下野市笹原26,0285-32-8888
09301,上三川町,329-0696,栃木県河内郡上三川町しらさぎ1-1,0285-56-9111
09342,益子町,321-4293,栃木県芳賀郡益子町大字益子2030,0285-72-2111
09343,茂木町,321-3598,栃木県芳賀郡茂木町大字茂木155,0285-63-1111
09344,市貝町,321-3493,栃木県芳賀郡市貝町大字市塙1280,0285-68-1111
09345,芳賀町,321-3392,栃木県芳賀郡芳賀町祖母井1020,028-677-1111
09361,壬生町,321-0292,栃木県都賀郡壬生町大字壬生甲3841番地1,0282-81-1806
09364,野木町,329-0195,栃木県下都賀郡野木町大字丸林571,0280-57-4111
09384,塩谷町,329-2292,栃木県塩谷郡塩谷町大字玉生741,0287-45-1111
09386,高根沢町,329-1292,栃木県塩谷郡高根沢町大字石末2053,028-675-8100
09407,那須町,329-3292,栃木県那須郡那須町大字寺子丙3-13,0287-72-6901
09411,那珂川町,324-0692,栃木県那須郡那珂川町馬頭555,0287-92-1111
10201,前橋市,371-8601,群馬県前橋市大手町2-12-1,027-224-1111
10202,高崎市,370-8501,群馬県高崎市高松町35-1,027-321-1111
10203,桐生市,376-8501,群馬県桐生市織姫町1-1,0277-46-1111
10204,伊勢崎市,372-8501,群馬県伊勢崎市今泉町2-410,0270-24-5111
10205,太田市,373-8718,群馬県太田市浜町2-35,0276-47-1111
10206,沼田市,378-8501,群馬県沼田市下之町888,0278-23-2111
10207,館林市,374-8501,群馬県館林市城町1-1,0276-72-4111
10208,渋川市,377-8501,群馬県渋川市石原80,0279-22-2111
10209,藤岡市,375-8601,群馬県藤岡市中栗須327,0274-22-1211
10210,富岡市,370-2392,群馬県富岡市富岡1460-1,0274-62-1511
10211,安中市,379-0192,群馬県安中市安中1-23-13,027-382-1111
10212,みどり市,379-2395,群馬県みどり市笠懸町鹿2952,0277-76-2111
10344,榛東村,370-3593,群馬県北群馬郡榛東村大字新井790番地1,0279-54-2211
10345,吉岡町,370-3692,群馬県北群馬郡吉岡町大字下野田560,0279-54-3111
10366,上野村,370-1614,群馬県多野郡上野村大字川和11,0274-59-2111
10367,神流町,370-1592,群馬県多野郡神流町万場90-6,0274-57-2111
10382,下仁田町,370-2601,群馬県甘楽郡下仁田町大字下仁田682,0274-82-2111
10383,南牧村,370-2806,群馬県甘楽郡南牧村大字大日向1098,0274-87-2011
10384,甘楽町,370-2292,群馬県甘楽郡甘楽町大字小幡161-1,0274-74-3131
10421,中之条町,377-0494,群馬県吾妻郡中之条町大字中之条町1091,0279-75-2111
10424,長野原町,377-1392,群馬県吾妻郡長野原町大字長野原1340番地1,0279-82-2244
10425,嬬恋村,377-1692,群馬県吾妻郡嬬恋村大字大前110,0279-96-0511
10426,草津町,377-1792,群馬県吾妻郡草津町大字草津28,0279-88-0001
10428,高山村,377-0792,群馬県吾妻郡高山村大字中山2856-1,0279-63-2111
10429,東吾妻町,377-0892,群馬県吾妻郡東吾妻町大字原町1046,0279-68-2111
10443,片品村,378-0498,群馬県利根郡片品村大字鎌田3967-3,0278-58-2111
10444,川場村,378-0101,群馬県利根郡川場村大字谷地2390-2,0278-52-2111
10448,昭和村,379-1298,群馬県利根郡昭和村大字糸井388,0278-24-5111
10449,みなかみ町,379-1393,群馬県利根郡みなかみ町後閑318,0278-62-2111
10464,玉村町,370-1192,群馬県佐波郡玉村町大字下新田201,0270-65-2511
10521,板倉町,374-0192,群馬県邑楽郡板倉町大字板倉2682-1,0276-82-1111
10522,明和町,370-0795,群馬県邑楽郡明和町新里250-1,0276-84-3111
10523,千代田町,370-0598,群馬県邑楽郡千代田町大字赤岩1895-1,0276-86-2111
10524,大泉町,370-0595,群馬県邑楽郡大泉町日の出55-1,0276-63-3111
10525,邑楽町,370-0692,群馬県邑楽郡邑楽町大字中野2570番地1,0276-88-5511
11100,さいたま市,330-9588,埼玉県さいたま市浦和区常盤6-4-4,048-829-1111
11101,西区,331-8587,埼玉県さいたま市西区西大宮3-4-2,048-622-1111
11102,北区,331-8586,埼玉県さいたま市北区宮原町1丁目852番地1,048-653-1111
11103,大宮区,330-8501,埼玉県さいたま市大宮区吉敷町1丁目124番地1,048-657-0111
11104,見沼区,337-8586,埼玉県さいたま市見沼区堀崎町12-36,048-687-1111
11105,中央区,338-8686,埼玉県さいたま市中央区下落合5-7-10,048-856-1111
11106,桜区,338-8586,埼玉県さいたま市桜区道場4-3-1,048-858-1111
11107,浦和区,330-9586,埼玉県さいたま市浦和区常盤6-4-4,048-825-1111
11108,南区,336-8586,埼玉県さいたま市南区別所7-20-1,048-838-1111
11109,緑区,336-8587,埼玉県さいたま市緑区大字中尾975-1,048-874-1111
11110,岩槻区,339-8585,埼玉県さいたま市岩槻区本町3-2-5,048-790-0111
11201,川越市,350-8601,埼玉県川越市元町1-3-1,049-224-8811
11202,熊谷市,360-8601,埼玉県熊谷市宮町2-47-1,048-524-1111
11203,川口市,332-8601,埼玉県川口市青木2-1-1,048-258-1110
11206,行田市,361-8601,埼玉県行田市本丸2-5,048-556-1111
11207,秩父市,368-8686,埼玉県秩父市熊木町8-15,0494-22-2211
11208,所沢市,359-8501,埼玉県所沢市並木1-1-1,04-2998-1111
11209,飯能市,357-8501,埼玉県飯能市大字双柳1-1,042-973-2111
11210,加須市,347-8501,埼玉県加須市三俣2-1-1,0480-62-1111
11211,本庄市,367-8501,埼玉県本庄市本庄3-5-3,0495-25-1111
11212,東松山市,355-8601,埼玉県東松山市松葉町1-1-58,0493-23-2221
11214,春日部市,344-8577,埼玉県春日部市中央6-2,048-736-1111
11215,狭山市,350-1380,埼玉県狭山市入間川1-23-5,04-2953-1111
11216,羽生市,348-8601,埼玉県羽生市東6-15,048-561-1121
11217,鴻巣市,365-8601,埼玉県鴻巣市中央1-1,048-541-1321
11218,深谷市,366-8501,埼玉県深谷市仲町11-1,048-571-1211
11219,上尾市,362-8501,埼玉県上尾市本町3-1-1,048-775-5111
11221,草加市,340-8550,埼玉県草加市高砂1-1-1,048-922-0151
11222,越谷市,343-8501,埼玉県越谷市越ヶ谷4-2-1,048-964-2111
11223,蕨市,335-8501,埼玉県蕨市中央5-14-15,048-432-3200
11224,戸田市,335-8588,埼玉県戸田市上戸田1-18-1,048-441-1800
11225,入間市,358-8511,埼玉県入間市豊岡1-16-1,04-2964-1111
11227,朝霞市,351-8501,埼玉県朝霞市本町1-1-1,048-463-1111
11228,志木市,353-8501,埼玉県志木市中宗岡1-1-1,048-473-1111
11229,和光市,351-0192,埼玉県和光市広沢1-5,048-464-1111
11230,新座市,352-8623,埼玉県新座市野火止1-1-1,048-477-1111
11231,桶川市,363-8501,埼玉県桶川市泉1-3-28,048-786-3211
11232,久喜市,346-8501,埼玉県久喜市大字下早見85-3,0480-22-1111
11233,北本市,364-8633,埼玉県北本市本町1-111,048-591-1111
11234,八潮市,340-8588,埼玉県八潮市中央1-2-1,048-996-2111
11235,富士見市,354-8511,埼玉県富士見市大字鶴馬1800-1,049-251-2711
11237,三郷市,341-8501,埼玉県三郷市花和田648-1,048-953-1111
11238,蓮田市,349-0193,埼玉県蓮田市大字黒浜2799-1,048-768-3111
11239,坂戸市,350-0292,埼玉県坂戸市千代田1-1-1,049-283-1331
11240,幸手市,340-0192,埼玉県幸手市東4-6-8,0480-43-1111
11241,鶴ヶ島市,350-2292,埼玉県鶴ヶ島市大字三ツ木16-1,049-271-1111
11242,日高市,350-1292,埼玉県日高市大字南平沢1020,042-989-2111
11243,吉川市,342-8501,埼玉県吉川市きよみ野1-1,048-982-5111
11245,ふじみ野市,356-8501,埼玉県ふじみ野市福岡1-1-1,049-261-2611
11246,白岡市,349-0292,埼玉県白岡市千駄野432,0480-92-1111
11301,伊奈町,362-8517,埼玉県北足立郡伊奈町大字小室9493,048-721-2111
11324,三芳町,354-8555,埼玉県入間郡三芳町大字藤久保1100-1,049-258-0019
11326,毛呂山町,350-0493,埼玉県入間郡毛呂山町中央2-1,049-295-2112
11327,越生町,350-0494,埼玉県入間郡越生町大字越生900-2,049-292-3121
11341,滑川町,355-8585,埼玉県比企郡滑川町大字福田750-1,0493-56-2211
11342,嵐山町,355-0211,埼玉県比企郡嵐山町大字杉山1030-1,0493-62-2150
11343,小川町,355-0392,埼玉県比企郡小川町大字大塚55,0493-72-1221
11346,川島町,350-0192,埼玉県比企郡川島町大字下八ツ林870-1,049-297-1811
11347,吉見町,355-0192,埼玉県比企郡吉見町大字下細谷411,0493-54-1511
11348,鳩山町,350-0392,埼玉県比企郡鳩山町大字大豆戸184-16,049-296-1211
11349,ときがわ町,355-0395,埼玉県比企郡ときがわ町大字玉川2490,0493-65-1521
11361,横瀬町,368-0072,埼玉県秩父郡横瀬町大字横瀬4545,0494-25-0111
11362,皆野町,369-1492,埼玉県秩父郡皆野町大字皆野1420-1,0494-62-1230
11363,長瀞町,369-1392,埼玉県秩父郡長瀞町大字本野上1035-1,0494-66-3111
11365,小鹿野町,368-0192,埼玉県秩父郡小鹿野町小鹿野89,0494-75-1221
11369,東秩父村,355-0393,埼玉県秩父郡東秩父村大字御堂634,0493-82-1221
11381,美里町,367-0194,埼玉県児玉郡美里町大字木部323-1,0495-76-1111
11383,神川町,367-0292,埼玉県児玉郡神川町大字植竹909,0495-77-2111
11385,上里町,369-0392,埼玉県児玉郡上里町大字七本木5518,0495-35-1221
11408,寄居町,369-1292,埼玉県大里郡寄居町大字寄居1180-1,048-581-2121
11442,宮代町,345-8504,埼玉県南埼玉郡宮代町笠原1-4-1,0480-34-1111
11464,杉戸町,345-8502,埼玉県北葛飾郡杉戸町清地2-9-29,0480-33-1111
11465,松伏町,343-0192,埼玉県北葛飾郡松伏町大字松伏2424,048-991-2711
12100,千葉市,260-8722,千葉県千葉市中央区千葉港1-1,043-245-5111
12101,中央区,260-8733,千葉県千葉市中央区中央4-5-1,043-221-2111
12102,花見川区,262-8733,千葉県千葉市花見川区瑞穂1-1,043-275-6111
12103,稲毛区,263-8733,千葉県千葉市稲毛区穴川4-12-1,043-284-6111
12104,若葉区,264-8733,千葉県千葉市若葉区桜木北2-1-1,043-233-8111
12105,緑区,266-8733,千葉県千葉市緑区おゆみ野3-15-3,043-292-8111
12106,美浜区,261-8733,千葉県千葉市美浜区真砂5-15-1,043-270-3111
12202,銚子市,288-8601,千葉県銚子市若宮町1-1,0479-24-8181
12203,市川市,272-8501,千葉県市川市八幡1丁目1番1号,047-334-1111
12204,船橋市,273-8501,千葉県船橋市湊町2-10-25,047-436-2111
12205,館山市,294-8601,千葉県館山市北条1145-1,0470-22-3111
12206,木更津市,292-8501,千葉県木更津市富士見1-2-1,0438-23-7111
12207,松戸市,271-8588,千葉県松戸市根本387-5,047-366-1111
12208,野田市,278-8550,千葉県野田市鶴奉7-1,04-7125-1111
12210,茂原市,297-8511,千葉県茂原市道表1,0475-23-2111
12211,成田市,286-8585,千葉県成田市花崎町760,0476-22-1111
12212,佐倉市,285-8501,千葉県佐倉市海隣寺町97,043-484-1111
12213,東金市,283-8511,千葉県東金市東岩崎1番地1,0475-50-1111
12215,旭市,289-2595,千葉県旭市ニの2132番地,0479-62-1212
12216,習志野市,275-8601,千葉県習志野市鷺沼2-1-1,047-451-1151
12217,柏市,277-8505,千葉県柏市柏5-10-1,04-7167-1111
12218,勝浦市,299-5292,千葉県勝浦市新官1343-1,0470-73-1211
12219,市原市,290-8501,千葉県市原市国分寺台中央1-1-1,0436-22-1111
12220,流山市,270-0192,千葉県流山市平和台1-1-1,04-7158-1111
12221,八千代市,276-8501,千葉県八千代市大和田新田312-5,047-483-1151
12222,我孫子市,270-1192,千葉県我孫子市我孫子1858,04-7185-1111
12223,鴨川市,296-8601,千葉県鴨川市横渚1450,04-7092-1111
12224,鎌ケ谷市,273-0195,千葉県鎌ケ谷市新鎌ケ谷2-6-1,047-445-1141
12225,君津市,299-1192,千葉県君津市久保2-13-1,0439-56-1581
12226,富津市,293-8506,千葉県富津市下飯野2443,0439-80-1222
12227,浦安市,279-8501,千葉県浦安市猫実1-1-1,047-351-1111
12228,四街道市,284-8555,千葉県四街道市鹿渡無番地,043-421-2111
12229,袖ケ浦市,299-0292,千葉県袖ケ浦市坂戸市場1-1,0438-62-2111
12230,八街市,289-1192,千葉県八街市八街ほ35-29,043-443-1111
12231,印西市,270-1396,千葉県印西市大森2364-2,0476-42-5111
12232,白井市,270-1492,千葉県白井市復1123,047-492-1111
12233,富里市,286-0292,千葉県富里市七栄652-1,0476-93-1111
12234,南房総市,299-2492,千葉県南房総市富浦町青木28,0470-33-1021
12235,匝瑳市,289-2198,千葉県匝瑳市八日市場ハ793番地2,0479-73-0084
12236,香取市,287-8501,千葉県香取市佐原ロ2127,0478-54-1111
12237,山武市,289-1392,千葉県山武市殿台296,0475-80-1112
12238,いすみ市,298-8501,千葉県いすみ市大原7400-1,0470-62-1111
12239,大網白里市,299-3292,千葉県大網白里市大網115-2,0475-70-0300
12322,酒々井町,285-8510,千葉県印旛郡酒々井町中央台4-11,043-496-1171
12329,栄町,270-1592,千葉県印旛郡栄町安食台1-2,0476-95-1111
12342,神崎町,289-0292,千葉県香取郡神崎町神崎本宿163,0478-72-2111
12347,多古町,289-2292,千葉県香取郡多古町多古584,0479-76-2611
12349,東庄町,289-0692,千葉県香取郡東庄町笹川い4713-131,0478-86-1111
12403,九十九里町,283-0195,千葉県山武郡九十九里町片貝4099,0475-70-3100
12409,芝山町,289-1692,千葉県山武郡芝山町小池992,0479-77-3901
12410,横芝光町,289-1793,千葉県山武郡横芝光町宮川11902,0479-84-1211
12421,一宮町,299-4396,千葉県長生郡一宮町一宮2457,0475-42-2111
12422,睦沢町,299-4492,千葉県長生郡睦沢町下之郷1650-1,0475-44-1111
12423,長生村,299-4394,千葉県長生郡長生村本郷1-77,0475-32-2111
12424,白子町,299-4292,千葉県長生郡白子町関5074-2,0475-33-2111
12426,長柄町,297-0298,千葉県長生郡長柄町桜谷712,0475-35-2111
12427,長南町,297-0192,千葉県長生郡長南町長南2110,0475-46-2111
12441,大多喜町,298-0292,千葉県夷隅郡大多喜町大多喜93,0470-82-2111
12443,御宿町,299-5192,千葉県夷隅郡御宿町須賀1522,0470-68-2511
12463,鋸南町,299-2192,千葉県安房郡鋸南町下佐久間3458,0470-55-2111
13101,千代田区,102-8688,東京都千代田区九段南1-2-1,03-3264-2111
13102,中央区,104-8404,東京都中央区築地1-1-1,03-3543-0211
13103,港区,105-8511,東京都港区芝公園1-5-25,03-3578-2111
13104,新宿区,160-8484,東京都新宿区歌舞伎町1-4-1,03-3209-1111
13105,文京区,112-8555,東京都文京区春日1-16-21,03-3812-7111
13106,台東区,110-8615,東京都台東区東上野4-5-6,03-5246-1111
13107,墨田区,130-8640,東京都墨田区吾妻橋1-23-20,03-5608-1111
13108,江東区,135-8383,東京都江東区東陽4-11-28,03-3647-9111
13109,品川区,140-8715,東京都品川区広町2-1-36,03-3777-1111
13110,目黒区,153-8573,東京都目黒区上目黒2-19-15,03-3715-1111
13111,大田区,144-8621,東京都大田区蒲田5-13-14,03-5744-1111
13112,世田谷区,154-8504,東京都世田谷区世田谷4-21-27,03-5432-1111
13113,渋谷区,150-8010,東京都渋谷区宇田川町1-1,03-3463-1211
13114,中野区,164-8501,東京都中野区中野4-8-1,03-3389-1111
13115,杉並区,166-8570,東京都杉並区阿佐谷南1-15-1,03-3312-2111
13116,豊島区,171-8422,東京都豊島区南池袋2-45-1,03-3981-1111
13117,北区,114-8508,東京都北区王子本町1-15-22,03-3908-1111
13118,荒川区,116-8501,東京都荒川区荒川2-2-3,03-3802-3111
13119,板橋区,173-8501,東京都板橋区板橋2-66-1,03-3964-1111
13120,練馬区,176-8501,東京都練馬区豊玉北6-12-1,03-3993-1111
13121,足立区,120-8510,東京都足立区中央本町1-17-1,03-3880-5111
13122,葛飾区,124-8555,東京都葛飾区立石5-13-1,03-3695-1111
13123,江戸川区,132-8501,東京都江戸川区中央1-4-1,03-3652-1151
13201,八王子市,192-8501,東京都八王子市元本郷町3-24-1,042-626-3111
13202,立川市,190-8666,東京都立川市泉町1156-9,042-523-2111
13203,武蔵野市,180-8777,東京都武蔵野市緑町2-2-28,0422-51-5131
13204,三鷹市,181-8555,東京都三鷹市野崎1-1-1,0422-45-1151
13205,青梅市,198-8701,東京都青梅市東青梅1-11-1,0428-22-1111
13206,府中市,183-8703,東京都府中市宮西町2-24,042-364-4111
13207,昭島市,196-8511,東京都昭島市田中町1-17-1,042-544-5111
13208,調布市,182-8511,東京都調布市小島町2-35-1,042-481-7111
13209,町田市,194-8520,東京都町田市森野2-2-22,042-722-3111
13210,小金井市,184-8504,東京都小金井市本町6-6-3,042-383-1111
13211,小平市,187-8701,東京都小平市小川町2-1333,042-341-1211
13212,日野市,191-0016,東京都日野市神明1-12-1,042-585-1111
13213,東村山市,189-8501,東京都東村山市本町1-2-3,042-393-5111
13214,国分寺市,185-8501,東京都国分寺市戸倉1-6-1,042-325-0111
13215,国立市,186-8501,東京都国立市富士見台2-47-1,042-576-2111
13218,福生市,197-8501,東京都福生市本町5,042-551-1511
13219,狛江市,201-8585,東京都狛江市和泉本町1-1-5,03-3430-1111
13220,東大和市,207-8585,東京都東大和市中央3-930,042-563-2111
13221,清瀬市,204-8511,東京都清瀬市中里5-842,042-492-5111
13222,東久留米市,203-8555,東京都東久留米市本町3-3-1,042-470-7777
13223,武蔵村山市,208-8501,東京都武蔵村山市本町1-1-1,042-565-1111
13224,多摩市,206-8666,東京都多摩市関戸6-12-1,042-375-8111
13225,稲城市,206-8601,東京都稲城市東長沼2111,042-378-2111
13227,羽村市,205-8601,東京都羽村市緑ヶ丘5-2-1,042-555-1111
13228,あきる野市,197-0814,東京都あきる野市二宮350,042-558-1111
13229,西東京市,188-8666,東京都西東京市南町5-6-13,042-464-1311
13303,瑞穂町,190-1292,東京都西多摩郡瑞穂町大字箱根ヶ崎2335,042-557-0501
13305,日の出町,190-0192,東京都西多摩郡日の出町平井2780,042-597-0511
13307,檜原村,190-0212,東京都西多摩郡檜原村467-1,042-598-1011
13308,奥多摩町,198-0212,東京都西多摩郡奥多摩町氷川215-6,0428-83-2111
13361,大島町,100-0101,東京都大島町元町1-1-14,04992-2-1443
13362,利島村,100-0301,東京都利島村248,04992-9-0011
13363,新島村,100-0402,東京都新島村本村1-1-1,04992-5-0240
13364,神津島村,100-0601,東京都神津島村904,04992-8-0011
13381,三宅村,100-1212,東京都三宅島三宅村阿古497,04994-5-0981
13382,御蔵島村,100-1301,東京都御蔵島村字入かねが沢,04994-8-2121
13401,八丈町,100-1498,東京都八丈島八丈町大賀郷2551-2,04996-2-1121
13402,青ヶ島村,100-1701,東京都青ヶ島村無番地,04996-9-0111
13421,小笠原村,100-2101,東京都小笠原村父島字西町,04998-2-3111
14100,横浜市,231-0005,神奈川県横浜市中区本町６丁目50番地の10,045-671-2121
14101,鶴見区,230-0051,神奈川県横浜市鶴見区鶴見中央3-20-1,045-510-1818
14102,神奈川区,221-0824,神奈川県横浜市神奈川区広台太田町3-8,045-411-7171
14103,西区,220-0051,神奈川県横浜市西区中央1-5-10,045-320-8484
14104,中区,231-0021,神奈川県横浜市中区日本大通35,045-224-8181
14105,南区,232-0024,神奈川県横浜市南区浦舟町2-33,045-341-1212
14106,保土ケ谷区,240-0001,神奈川県横浜市保土ケ谷区川辺町2-9,045-334-6262
14107,磯子区,235-0016,神奈川県横浜市磯子区磯子3-5-1,045-750-2323
14108,金沢区,236-0021,神奈川県横浜市金沢区泥亀2-9-1,045-788-7878
14109,港北区,222-0032,神奈川県横浜市港北区大豆戸町26-1,045-540-2323
14110,戸塚区,244-0003,神奈川県横浜市戸塚区戸塚町16-17,045-866-8484
14111,港南区,233-0003,神奈川県横浜市港南区港南4-2-10,045-847-8484
14112,旭区,241-0022,神奈川県横浜市旭区鶴ヶ峰1-4-12,045-954-6161
14113,緑区,226-0013,神奈川県横浜市緑区寺山町118,045-930-2323
14114,瀬谷区,246-0021,神奈川県横浜市瀬谷区二ツ橋町190,045-367-5656
14115,栄区,247-0005,神奈川県横浜市栄区桂町303-19,045-894-8181
14116,泉区,245-0016,神奈川県横浜市泉区和泉町4636-2,045-800-2323
14117,青葉区,225-0024,神奈川県横浜市青葉区市ヶ尾町31-4,045-978-2323
14118,都筑区,224-0032,神奈川県横浜市都筑区茅ヶ崎中央32-1,045-948-2323
14130,川崎市,210-8577,神奈川県川崎市川崎区宮本町1,044-200-2111
14131,川崎区,210-8570,神奈川県川崎市川崎区東田町8,044-201-3113
14132,幸区,212-8570,神奈川県川崎市幸区戸手本町1-11-1,044-556-6666
14133,中原区,211-8570,神奈川県川崎市中原区小杉町3-245,044-744-3113
14134,高津区,213-8570,神奈川県川崎市高津区下作延2-8-1,044-861-3113
14135,多摩区,214-8570,神奈川県川崎市多摩区登戸1775-1,044-935-3113
14136,宮前区,216-8570,神奈川県川崎市宮前区宮前平2-20-5,044-856-3113
14137,麻生区,215-8570,神奈川県川崎市麻生区万福寺1-5-1,044-965-5100
14150,相模原市,252-5277,神奈川県相模原市中央区中央2-11-15,042-754-1111
14151,緑区,252-5177,神奈川県相模原市緑区西橋本5-3-21,042-775-8802
14152,中央区,252-5277,神奈川県相模原市中央区中央2-11-15,042-769-9802
14153,南区,252-0377,神奈川県相模原市南区相模大野5-31-1,042-749-2134
14201,横須賀市,238-8550,神奈川県横須賀市小川町11,046-822-4000
14203,平塚市,254-8686,神奈川県平塚市浅間町9-1,0463-23-1111
14204,鎌倉市,248-8686,神奈川県鎌倉市御成町18-10,0467-23-3000
14205,藤沢市,251-8601,神奈川県藤沢市朝日町1-1,0466-25-1111
14206,小田原市,250-8555,神奈川県小田原市荻窪300,0465-33-1300
14207,茅ヶ崎市,253-8686,神奈川県茅ヶ崎市茅ヶ崎1-1-1,0467-82-1111
14208,逗子市,249-8686,神奈川県逗子市逗子5-2-16,046-873-1111
14210,三浦市,238-0298,神奈川県三浦市城山町1-1,046-882-1111
14211,秦野市,257-8501,神奈川県秦野市桜町1-3-2,0463-82-5111
14212,厚木市,243-8511,神奈川県厚木市中町3-17-17,046-223-1511
14213,大和市,242-8601,神奈川県大和市下鶴間1-1-1,046-263-1111
14214,伊勢原市,259-1188,神奈川県伊勢原市田中348,0463-94-4711
14215,海老名市,243-0492,神奈川県海老名市勝瀬175-1,046-231-2111
14216,座間市,252-8566,神奈川県座間市緑ヶ丘1-1-1,046-255-1111
14217,南足柄市,250-0192,神奈川県南足柄市関本440,0465-74-2111
14218,綾瀬市,252-1192,神奈川県綾瀬市早川550,0467-77-1111
14301,葉山町,240-0192,神奈川県三浦郡葉山町堀内2135,046-876-1111
14321,寒川町,253-0196,神奈川県高座郡寒川町宮山165,0467-74-1111
14341,大磯町,255-8555,神奈川県中郡大磯町東小磯183,0463-61-4100
14342,二宮町,259-0196,神奈川県中郡二宮町二宮961,0463-71-3311
14361,中井町,259-0197,神奈川県足柄上郡中井町比奈窪56,0465-81-1111
14362,大井町,258-8501,神奈川県足柄上郡大井町金子1995,0465-83-1311
14363,松田町,258-8585,神奈川県足柄上郡松田町松田惣領2037,0465-83-1221
14364,山北町,258-0195,神奈川県足柄上郡山北町山北1301-4,0465-75-1122
14366,開成町,258-8502,神奈川県足柄上郡開成町延沢773,0465-83-2331
14382,箱根町,250-0398,神奈川県足柄下郡箱根町湯本256,0460-85-7111
14383,真鶴町,259-0202,神奈川県足柄下郡真鶴町岩244-1,0465-68-1131
14384,湯河原町,259-0392,神奈川県足柄下郡湯河原町中央2-2-1,0465-63-2111
14401,愛川町,243-0392,神奈川県愛甲郡愛川町角田251-1,046-285-2111
14402,清川村,243-0195,神奈川県愛甲郡清川村煤ヶ谷2216,046-288-1211
15100,新潟市,951-8550,新潟県新潟市中央区学校町通1番町602-1,025-228-1000
15101,北区,950-3393,新潟県新潟市北区東栄町1丁目1番14号,025-387-1000
15102,東区,950-8709,新潟県新潟市東区下木戸1-4-1,025-272-1000
15103,中央区,951-8553,新潟県新潟市中央区西堀通6番町866,025-223-1000
15104,江南区,950-0195,新潟県新潟市江南区泉町3-4-5,025-383-1000
15105,秋葉区,956-8601,新潟県新潟市秋葉区程島2009,0250-23-1000
15106,南区,950-1292,新潟県新潟市南区白根1235,025-373-1000
15107,西区,950-2097,新潟県新潟市西区寺尾東3-14-41,025-268-1000
15108,西蒲区,953-8666,新潟県新潟市西蒲区巻甲2690-1,0256-73-1000
15202,長岡市,940-8501,新潟県長岡市大手通1-4-10,0258-35-1122
15204,三条市,955-8686,新潟県三条市旭町2-3-1,0256-34-5511
15205,柏崎市,945-8511,新潟県柏崎市日石町2番1号,0257-23-5111
15206,新発田市,957-8686,新潟県新発田市中央町3-3-3,0254-22-3030
15208,小千谷市,947-8501,新潟県小千谷市城内2-7-5,0258-83-3511
15209,加茂市,959-1392,新潟県加茂市幸町2-3-5,0256-52-0080
15210,十日町市,948-8501,新潟県十日町市千歳町3-3,025-757-3111
15211,見附市,954-8686,新潟県見附市昭和町2-1-1,0258-62-1700
15212,村上市,958-8501,新潟県村上市三之町1-1,0254-53-2111
15213,燕市,959-0295,新潟県燕市吉田西太田1934,0256-92-1111
15216,糸魚川市,941-8501,新潟県糸魚川市一の宮1-2-5,025-552-1511
15217,妙高市,944-8686,新潟県妙高市栄町5-1,0255-72-5111
15218,五泉市,959-1692,新潟県五泉市太田1094-1,0250-43-3911
15222,上越市,943-8601,新潟県上越市木田1丁目1-3,025-526-5111
15223,阿賀野市,959-2092,新潟県阿賀野市岡山町10-15,0250-62-2510
15224,佐渡市,952-1292,新潟県佐渡市千種232,0259-63-3111
15225,魚沼市,946-8601,新潟県魚沼市小出島910番地,025-792-1000
15226,南魚沼市,949-6696,新潟県南魚沼市六日町180-1,025-773-6660
15227,胎内市,959-2693,新潟県胎内市新和町2-10,0254-43-6111
15307,聖籠町,957-0192,新潟県北蒲原郡聖籠町大字諏訪山1635-4,0254-27-2111
15342,弥彦村,959-0392,新潟県西蒲原郡弥彦村大字矢作402,0256-94-3131
15361,田上町,959-1503,新潟県南蒲原郡田上町原ヶ崎新田3070,0256-57-6222
15385,阿賀町,959-4495,新潟県東蒲原郡阿賀町津川580,0254-92-3111
15405,出雲崎町,949-4392,新潟県三島郡出雲崎町大字川西140,0258-78-3111
15461,湯沢町,949-6192,新潟県南魚沼郡湯沢町大字神立300,025-784-3451
15482,津南町,949-8292,新潟県中魚沼郡津南町大字下船渡戊585,025-765-3111
15504,刈羽村,945-0397,新潟県刈羽郡刈羽村大字割町新田215-1,0257-45-2244
15581,関川村,959-3292,新潟県岩船郡関川村大字下関912,0254-64-1441
15586,粟島浦村,958-0061,新潟県岩船郡粟島浦村字日ノ見山1513-11,0254-55-2111
16201,富山市,930-8510,富山県富山市新桜町7-38,076-431-6111
16202,高岡市,933-8601,富山県高岡市広小路7-50,0766-20-1111
16204,魚津市,937-8555,富山県魚津市釈迦堂1-10-1,0765-23-1019
16205,氷見市,935-8686,富山県氷見市鞍川1060番地,0766-74-8100
16206,滑川市,936-8601,富山県滑川市寺家町104,076-475-2111
16207,黒部市,938-8555,富山県黒部市三日市1301,0765-54-2111
16208,砺波市,939-1398,富山県砺波市栄町7-3,0763-33-1111
16209,小矢部市,932-8611,富山県小矢部市本町1-1,0766-67-1760
16210,南砺市,939-1692,富山県富山県南砺市荒木1550番地,0763-23-2003
16211,射水市,939-0294,富山県射水市新開発410-1,0766-51-6600
16321,舟橋村,930-0295,富山県中新川郡舟橋村仏生寺55,076-464-1121
16322,上市町,930-0393,富山県中新川郡上市町法音寺1,076-472-1111
16323,立山町,930-0292,富山県中新川郡立山町前沢2440,076-463-1121
16342,入善町,939-0693,富山県下新川郡入善町入膳3255,0765-72-1100
16343,朝日町,939-0793,富山県下新川郡朝日町道下1133,0765-83-1100
17201,金沢市,920-8577,石川県金沢市広坂1-1-1,076-220-2111
17202,七尾市,926-8611,石川県七尾市袖ヶ江町イ部25,0767-53-1111
17203,小松市,923-8650,石川県小松市小馬出町91,0761-22-4111
17204,輪島市,928-8525,石川県輪島市二ツ屋町2字29,0768-22-2211
17205,珠洲市,927-1295,石川県珠洲市上戸町北方1の6の2,0768-82-2222
17206,加賀市,922-8622,石川県加賀市大聖寺南町ニ41,0761-72-1111
17207,羽咋市,925-8501,石川県羽咋市旭町ア200,0767-22-1111
17209,かほく市,929-1195,石川県かほく市宇野気ニ81,076-283-1111
17210,白山市,924-8688,石川県白山市倉光2-1,076-276-1111
17211,能美市,923-1297,石川県能美市来丸町1110,0761-58-1111
17212,野々市市,921-8510,石川県野々市市三納1-1,076-227-6000
17324,川北町,923-1295,石川県能美郡川北町壱ツ屋174,076-277-1111
17361,津幡町,929-0393,石川県河北郡津幡町加賀爪ニ3,076-288-2121
17365,内灘町,920-0292,石川県河北郡内灘町字大学1-2-1,076-286-1111
17384,志賀町,925-0198,石川県羽咋郡志賀町末吉千古1-1,0767-32-1111
17386,宝達志水町,929-1492,石川県羽咋郡宝達志水町子浦そ18-1,0767-29-3111
17407,中能登町,929-1792,石川県鹿島郡中能登町末坂9部46番地,0767-74-1234
17461,穴水町,927-8601,石川県鳳珠郡穴水町字川島ラ174,0768-52-0300
17463,能登町,927-0492,石川県鳳珠郡能登町字宇出津ト字50番地1,0768-62-1000
18201,福井市,910-8511,福井県福井市大手3-10-1,0776-20-5111
18202,敦賀市,914-8501,福井県敦賀市中央町2-1-1,0770-21-1111
18204,小浜市,917-8585,福井県小浜市大手町6-3,0770-53-1111
18205,大野市,912-8666,福井県大野市天神町1-1,0779-66-1111
18206,勝山市,911-8501,福井県勝山市元町1-1-1,0779-88-1111
18207,鯖江市,916-8666,福井県鯖江市西山町13-1,0778-51-2200
18208,あわら市,919-0692,福井県あわら市市姫3-1-1,0776-73-1221
18209,越前市,915-8530,福井県越前市府中1-13-7,0778-22-3000
18210,坂井市,919-0592,福井県坂井市坂井町下新庄1-1,0776-66-1500
18322,永平寺町,910-1192,福井県吉田郡永平寺町松岡春日1-4,0776-61-1111
18382,池田町,910-2512,福井県今立郡池田町稲荷35-4,0778-44-6000
18404,南越前町,919-0292,福井県南条郡南越前町東大道29-1,0778-47-3000
18423,越前町,916-0192,福井県丹生郡越前町西田中13-5-1,0778-34-1234
18442,美浜町,919-1192,福井県三方郡美浜町郷市25-25,0770-32-1111
18481,高浜町,919-2292,福井県大飯郡高浜町宮崎86-23-2,0770-72-1111
18483,おおい町,919-2111,福井県大飯郡おおい町本郷136-1-1,0770-77-1111
18501,若狭町,919-1393,福井県三方上中郡若狭町中央1-1,0770-45-1111
19201,甲府市,400-8585,山梨県甲府市丸の内1-18-1,055-237-1161
19202,富士吉田市,403-8601,山梨県富士吉田市下吉田6-1-1,0555-22-1111
19204,都留市,402-8501,山梨県都留市上谷1-1-1,0554-43-1111
19205,山梨市,405-8501,山梨県山梨市小原西843,0553-22-1111
19206,大月市,401-8601,山梨県大月市大月2-6-20,0554-22-2111
19207,韮崎市,407-8501,山梨県韮崎市水神1-3-1,0551-22-1111
19208,南アルプス市,400-0395,山梨県南アルプス市小笠原376,055-282-1111
19209,北杜市,408-0188,山梨県北杜市須玉町大豆生田961-1,0551-42-1111
19210,甲斐市,400-0192,山梨県甲斐市篠原2610,055-276-2111
19211,笛吹市,406-8510,山梨県笛吹市石和町市部777,055-262-4111
19212,上野原市,409-0192,山梨県上野原市上野原3832,0554-62-3111
19213,甲州市,404-8501,山梨県甲州市塩山上於曽1085番地1,0553-32-2111
19214,中央市,409-3892,山梨県中央市臼井阿原301-1,055-274-1111
19346,市川三郷町,409-3601,山梨県西八代郡市川三郷町市川大門1790-3,055-272-1101
19364,早川町,409-2732,山梨県南巨摩郡早川町高住758,0556-45-2511
19365,身延町,409-3392,山梨県南巨摩郡身延町切石350,0556-42-2111
19366,南部町,409-2192,山梨県南巨摩郡南部町福士28505-2,0556-66-2111
19368,富士川町,400-0592,山梨県南巨摩郡富士川町天神中条1134,0556-22-1111
19384,昭和町,409-3880,山梨県中巨摩郡昭和町押越542-2,055-275-2111
19422,道志村,402-0209,山梨県南都留郡道志村6181-1,0554-52-2111
19423,西桂町,403-0022,山梨県南都留郡西桂町小沼1501-1,0555-25-2121
19424,忍野村,401-0592,山梨県南都留郡忍野村忍草1514,0555-84-3111
19425,山中湖村,401-0595,山梨県南都留郡山中湖村山中237-1,0555-62-1111
19429,鳴沢村,401-0398,山梨県南都留郡鳴沢村1575,0555-85-2311
19430,富士河口湖町,401-0392,山梨県南都留郡富士河口湖町船津1700,0555-72-1111
19442,小菅村,409-0211,山梨県北都留郡小菅村4698,0428-87-0111
19443,丹波山村,409-0305,山梨県北都留郡丹波山村890,0428-88-0211
20201,長野市,380-8512,長野県長野市大字鶴賀緑町1613,026-226-4911
20202,松本市,390-8620,長野県松本市丸の内3-7,0263-34-3000
20203,上田市,386-8601,長野県上田市大手1-11-16,0268-22-4100
20204,岡谷市,394-8510,長野県岡谷市幸町8-1,0266-23-4811
20205,飯田市,395-8501,長野県飯田市大久保町2534,0265-22-4511
20206,諏訪市,392-8511,長野県諏訪市高島1-22-30,0266-52-4141
20207,須坂市,382-8511,長野県須坂市大字須坂1528-1,026-245-1400
20208,小諸市,384-8501,長野県小諸市相生町3-3-3,0267-22-1700
20209,伊那市,396-8617,長野県伊那市下新田3050,0265-78-4111
20210,駒ヶ根市,399-4192,長野県駒ヶ根市赤須町20-1,0265-83-2111
20211,中野市,383-8614,長野県中野市三好町1-3-19,0269-22-2111
20212,大町市,398-8601,長野県大町市大町3887,0261-22-0420
20213,飯山市,389-2292,長野県飯山市大字飯山1110-1,0269-62-3111
20214,茅野市,391-8501,長野県茅野市塚原2-6-1,0266-72-2101
20215,塩尻市,399-0786,長野県塩尻市大門7番町3-3,0263-52-0280
20217,佐久市,385-8501,長野県佐久市中込3056,0267-62-2111
20218,千曲市,387-8511,長野県千曲市杭瀬下2丁目1番地,026-273-1111
20219,東御市,389-0592,長野県東御市県281-2,0268-62-1111
20220,安曇野市,399-8281,長野県安曇野市豊科6000,0263-71-2000
20303,小海町,384-1192,長野県南佐久郡小海町大字豊里57-1,0267-92-2525
20304,川上村,384-1405,長野県南佐久郡川上村大字大深山525,0267-97-2121
20305,南牧村,384-1302,長野県南佐久郡南牧村大字海ノ口1051,0267-96-2211
20306,南相木村,384-1211,長野県南佐久郡南相木村3525-1,0267-78-2121
20307,北相木村,384-1201,長野県南佐久郡北相木村2744,0267-77-2111
20309,佐久穂町,384-0697,長野県南佐久郡佐久穂町大字高野町569,0267-86-2525
20321,軽井沢町,389-0192,長野県北佐久郡軽井沢町大字長倉2381-1,0267-45-8111
20323,御代田町,389-0292,長野県北佐久郡御代田町大字馬瀬口1794-6,0267-32-3111
20324,立科町,384-2305,長野県北佐久郡立科町大字芦田2532,0267-56-2311
20349,青木村,386-1601,長野県小県郡青木村大字田沢111,0268-49-0111
20350,長和町,386-0603,長野県小県郡長和町古町4247-1,0268-68-3111
20361,下諏訪町,393-8501,長野県諏訪郡下諏訪町4613-8,0266-27-1111
20362,富士見町,399-0292,長野県諏訪郡富士見町落合10777,0266-62-2250
20363,原村,391-0192,長野県諏訪郡原村6549-1,0266-79-2111
20382,辰野町,399-0493,長野県上伊那郡辰野町中央1,0266-41-1111
20383,箕輪町,399-4695,長野県上伊那郡箕輪町大字中箕輪10298,0265-79-3111
20384,飯島町,399-3797,長野県上伊那郡飯島町飯島2537,0265-86-3111
20385,南箕輪村,399-4592,長野県上伊那郡南箕輪村4825-1,0265-72-2104
20386,中川村,399-3892,長野県上伊那郡中川村大草4045-1,0265-88-3001
20388,宮田村,399-4392,長野県上伊那郡宮田村98,0265-85-3181
20402,松川町,399-3303,長野県下伊那郡松川町元大島3823,0265-36-3111
20403,高森町,399-3193,長野県下伊那郡高森町下市田2183-1,0265-35-3111
20404,阿南町,399-1511,長野県下伊那郡阿南町東條58-1,0260-22-2141
20407,阿智村,395-0303,長野県下伊那郡阿智村駒場483,0265-43-2220
20409,平谷村,395-0601,長野県下伊那郡平谷村354,0265-48-2211
20410,根羽村,395-0701,長野県下伊那郡根羽村2131-1,0265-49-2111
20411,下條村,399-2101,長野県下伊那郡下條村睦沢8801-1,0260-27-2311
20412,売木村,399-1689,長野県下伊那郡売木村968-1,0260-28-2311
20413,天龍村,399-1201,長野県下伊那郡天龍村平岡878,0260-32-2001
20414,泰阜村,399-1895,長野県下伊那郡泰阜村3236-1,0260-26-2111
20415,喬木村,395-1107,長野県下伊那郡喬木村6664,0265-33-2001
20416,豊丘村,399-3295,長野県下伊那郡豊丘村大字神稲3120,0265-35-3311
20417,大鹿村,399-3502,長野県下伊那郡大鹿村大字大河原354,0265-39-2001
20422,上松町,399-5603,長野県木曽郡上松町大字上松159番の4,0264-52-2001
20423,南木曽町,399-5301,長野県木曽郡南木曽町大字読書3668-1,0264-57-2001
20425,木祖村,399-6201,長野県木曽郡木祖村薮原1191-1,0264-36-2001
20429,王滝村,397-0201,長野県木曽郡王滝村3623,0264-48-2001
20430,大桑村,399-5503,長野県木曽郡大桑村長野880番地1,0264-55-3080
20432,木曽町,397-8588,長野県木曽郡木曽町福島2326-6,0264-22-3000
20446,麻績村,399-7701,長野県東筑摩郡麻績村麻3837,0263-67-3001
20448,生坂村,399-7201,長野県東筑摩郡生坂村5493-2,0263-69-3111
20450,山形村,390-1392,長野県東筑摩郡山形村2030-1,0263-98-3111
20451,朝日村,390-1188,長野県東筑摩郡朝日村大字古見1555-1,0263-99-2001
20452,筑北村,399-7501,長野県東筑摩郡筑北村西条4195,0263-66-2111
20481,池田町,399-8696,長野県北安曇郡池田町大字池田3203-6,0261-62-3131
20482,松川村,399-8501,長野県北安曇郡松川村76-5,0261-62-3111
20485,白馬村,399-9393,長野県北安曇郡白馬村大字北城7025,0261-72-5000
20486,小谷村,399-9494,長野県北安曇郡小谷村大字中小谷丙131,0261-82-2001
20521,坂城町,389-0692,長野県埴科郡坂城町大字坂城10050,0268-82-3111
20541,小布施町,381-0297,長野県上高井郡小布施町大字小布施1491-2,026-247-3111
20543,高山村,382-8510,長野県上高井郡高山村大字高井4972,026-245-1100
20561,山ノ内町,381-0498,長野県下高井郡山ノ内町大字平穏3352-1,0269-33-3111
20562,木島平村,389-2392,長野県下高井郡木島平村大字往郷914-6,0269-82-3111
20563,野沢温泉村,389-2592,長野県下高井郡野沢温泉村大字豊郷9817,0269-85-3111
20583,信濃町,389-1392,長野県上水内郡信濃町大字柏原428-2,026-255-3111
20588,小川村,381-3302,長野県上水内郡小川村大字高府8800-8,026-269-2323
20590,飯綱町,389-1293,長野県上水内郡飯綱町大字牟礼2795-1,026-253-2511
20602,栄村,389-2792,長野県下水内郡栄村大字北信3433,0269-87-3111
21201,岐阜市,500-8701,岐阜県ｓ岐阜市司町40番地1,058-265-4141
21202,大垣市,503-8601,岐阜県大垣市丸の内2-29,0584-81-4111
21203,高山市,506-8555,岐阜県高山市花岡町2-18,0577-32-3333
21204,多治見市,507-8703,岐阜県多治見市日ノ出町2-15,0572-22-1111
21205,関市,501-3894,岐阜県関市若草通3-1,0575-22-3131
21206,中津川市,508-8501,岐阜県中津川市かやの木町2-1,0573-66-1111
21207,美濃市,501-3792,岐阜県美濃市1350,0575-33-1122
21208,瑞浪市,509-6195,岐阜県瑞浪市上平町1-1,0572-68-2111
21209,羽島市,501-6292,岐阜県羽島市竹鼻町55,058-392-1111
21210,恵那市,509-7292,岐阜県恵那市長島町正家1-1-1,0573-26-2111
21211,美濃加茂市,505-8606,岐阜県美濃加茂市太田町3431-1,0574-25-2111
21212,土岐市,509-5192,岐阜県土岐市土岐津町土岐口2101,0572-54-1111
21213,各務原市,504-8555,岐阜県各務原市那加桜町1-69,058-383-1111
21214,可児市,509-0292,岐阜県可児市広見1-1,0574-62-1111
21215,山県市,501-2192,岐阜県山県市高木1000-1,0581-22-2111
21216,瑞穂市,501-0293,岐阜県瑞穂市別府1288,058-327-4111
21217,飛騨市,509-4292,岐阜県飛騨市古川町本町2-22,0577-73-2111
21218,本巣市,501-1292,岐阜県本巣市文殊324,0581-34-2511
21219,郡上市,501-4297,岐阜県郡上市八幡町島谷228,0575-67-1121
21220,下呂市,509-2295,岐阜県下呂市森960,0576-24-2222
21221,海津市,503-0695,岐阜県海津市海津町高須515,0584-53-1111
21302,岐南町,501-6197,岐阜県羽島郡岐南町八剣7-107,058-247-1331
21303,笠松町,501-6181,岐阜県羽島郡笠松町司町1,058-388-1111
21341,養老町,503-1392,岐阜県養老郡養老町高田798,0584-32-1100
21361,垂井町,503-2193,岐阜県不破郡垂井町宮代2957-11,0584-22-1151
21362,関ケ原町,503-1592,岐阜県不破郡関ケ原町大字関ケ原894-58,0584-43-1111
21381,神戸町,503-2392,岐阜県安八郡神戸町大字神戸1111,0584-27-3111
21382,輪之内町,503-0292,岐阜県安八郡輪之内町四郷2530-1,0584-69-3111
21383,安八町,503-0198,岐阜県安八郡安八町氷取161,0584-64-3111
21401,揖斐川町,501-0692,岐阜県揖斐郡揖斐川町三輪133,0585-22-2111
21403,大野町,501-0592,岐阜県揖斐郡大野町大字大野80,0585-34-1111
21404,池田町,503-2492,岐阜県揖斐郡池田町六之井1468-1,0585-45-3111
21421,北方町,501-0492,岐阜県本巣郡北方町長谷川1-1,058-323-1111
21501,坂祝町,505-8501,岐阜県加茂郡坂祝町取組46-18,0574-26-7111
21502,富加町,501-3392,岐阜県加茂郡富加町滝田1511,0574-54-2111
21503,川辺町,509-0393,岐阜県加茂郡川辺町中川辺1518-4,0574-53-2511
21504,七宗町,509-0492,岐阜県加茂郡七宗町上麻生2442-3,0574-48-1111
21505,八百津町,505-0392,岐阜県加茂郡八百津町八百津3903-2,0574-43-2111
21506,白川町,509-1192,岐阜県加茂郡白川町河岐715,0574-72-1311
21507,東白川村,509-1392,岐阜県加茂郡東白川村神土548,0574-78-3111
21521,御嵩町,505-0192,岐阜県可児郡御嵩町御嵩1239-1,0574-67-2111
21604,白川村,501-5692,岐阜県大野郡白川村鳩谷517,05769-6-1311
22100,静岡市,420-8602,静岡県静岡市葵区追手町5-1,054-254-2111
22101,葵区,420-8602,静岡県静岡市葵区追手町5-1,054-254-2115
22102,駿河区,422-8550,静岡県静岡市駿河区南八幡町10-40,054-202-5811
22103,清水区,424-8701,静岡県静岡市清水区旭町6-8,054-354-2111
22130,浜松市,430-8652,静岡県浜松市中区元城町103-2,053-457-2111
22131,中区,430-8652,静岡県浜松市中区元城町103-2,053-457-2111
22132,東区,435-8686,静岡県浜松市東区流通元町20-3,053-424-0111
22133,西区,431-0193,静岡県浜松市西区雄踏1-31-1,053-597-1111
22134,南区,430-0898,静岡県浜松市南区江之島町600-1,053-425-1111
22135,北区,431-1395,静岡県浜松市北区細江町気賀305,053-523-1111
22136,浜北区,434-8550,静岡県浜松市浜北区貴布祢3000,053-587-3111
22137,天竜区,431-3392,静岡県浜松市天竜区二俣町二俣481,053-926-1111
22203,沼津市,410-8601,静岡県沼津市御幸町16-1,055-931-2500
22205,熱海市,413-8550,静岡県熱海市中央町1-1,0557-86-6000
22206,三島市,411-8666,静岡県三島市北田町4-47,055-975-3111
22207,富士宮市,418-8601,静岡県富士宮市弓沢町150,0544-22-1111
22208,伊東市,414-8555,静岡県伊東市大原二丁目1-1,0557-36-0111
22209,島田市,427-8501,静岡県島田市中央町1-1,0547-37-5111
22210,富士市,417-8601,静岡県富士市永田町1-100,0545-51-0123
22211,磐田市,438-8650,静岡県磐田市国府台3-1,0538-37-2111
22212,焼津市,425-8502,静岡県焼津市本町2-16-32,054-626-1111
22213,掛川市,436-8650,静岡県掛川市長谷一丁目1番地の1,0537-21-1111
22214,藤枝市,426-8722,静岡県藤枝市岡出山1-11-1,054-643-3111
22215,御殿場市,412-8601,静岡県御殿場市萩原483,0550-83-1212
22216,袋井市,437-8666,静岡県袋井市新屋1-1-1,0538-43-2111
22219,下田市,415-8501,静岡県下田市東本郷1-5-18,0558-22-2211
22220,裾野市,410-1192,静岡県裾野市佐野1059,055-992-1111
22221,湖西市,431-0492,静岡県湖西市吉美3268,053-576-1111
22222,伊豆市,410-2413,静岡県伊豆市小立野38-2,0558-72-1111
22223,御前崎市,437-1692,静岡県御前崎市池新田5585,0537-85-1111
22224,菊川市,439-8650,静岡県菊川市堀之内61,0537-35-2111
22225,伊豆の国市,410-2292,静岡県伊豆の国市長岡340-1,055-948-1411
22226,牧之原市,421-0495,静岡県牧之原市静波447-1,0548-23-0001
22301,東伊豆町,413-0411,静岡県賀茂郡東伊豆町稲取3354,0557-95-1100
22302,河津町,413-0595,静岡県賀茂郡河津町田中212-2,0558-34-1111
22304,南伊豆町,415-0392,静岡県賀茂郡南伊豆町下賀茂315-1,0558-62-1111
22305,松崎町,410-3696,静岡県賀茂郡松崎町宮内301-1,0558-42-1111
22306,西伊豆町,410-3514,静岡県賀茂郡西伊豆町仁科401-1,0558-52-1111
22325,函南町,419-0192,静岡県田方郡函南町平井717-13,055-978-2250
22341,清水町,411-8650,静岡県駿東郡清水町堂庭210-1,055-973-1111
22342,長泉町,411-8668,静岡県駿東郡長泉町中土狩828,055-989-5500
22344,小山町,410-1395,静岡県駿東郡小山町藤曲57-2,0550-76-1111
22424,吉田町,421-0395,静岡県榛原郡吉田町住吉87,0548-33-1111
22429,川根本町,428-0313,静岡県榛原郡川根本町上長尾627,0547-56-1111
22461,森町,437-0293,静岡県周智郡森町森2101-1,0538-85-2111
23100,名古屋市,460-8508,愛知県名古屋市中区三の丸3-1-1,052-961-1111
23101,千種区,464-8644,愛知県名古屋市千種区覚王山通8-37,052-762-3111
23102,東区,461-8640,愛知県名古屋市東区筒井1-7-74,052-935-2271
23103,北区,462-8511,愛知県名古屋市北区清水4-17-1,052-911-3131
23104,西区,451-8508,愛知県名古屋市西区花の木二丁目18-1,052-521-5311
23105,中村区,453-8501,愛知県名古屋市中村区竹橋町36-31,052-451-1241
23106,中区,460-8447,愛知県名古屋市中区栄4-1-8,052-241-3601
23107,昭和区,466-8585,愛知県名古屋市昭和区阿由知通3-19,052-731-1511
23108,瑞穂区,467-8531,愛知県名古屋市瑞穂区瑞穂通3-32,052-841-1521
23109,熱田区,456-8501,愛知県名古屋市熱田区神宮3-1-15,052-681-1431
23110,中川区,454-8501,愛知県名古屋市中川区高畑1-223,052-362-1111
23111,港区,455-8520,愛知県名古屋市港区港明1-12-20,052-651-3251
23112,南区,457-8508,愛知県名古屋市南区前浜通3-10,052-811-5161
23113,守山区,463-8510,愛知県名古屋市守山区小幡1-3-1,052-793-3434
23114,緑区,458-8585,愛知県名古屋市緑区青山2-15,052-621-2111
23115,名東区,465-8508,愛知県名古屋市名東区上社2-50,052-773-1111
23116,天白区,468-8510,愛知県名古屋市天白区島田2-201,052-803-1111
23201,豊橋市,440-8501,愛知県豊橋市今橋町1,0532-51-2111
23202,岡崎市,444-8601,愛知県岡崎市十王町2-9,0564-23-6000
23203,一宮市,491-8501,愛知県一宮市本町2-5-6,0586-28-8100
23204,瀬戸市,489-8701,愛知県瀬戸市追分町64-1,0561-82-7111
23205,半田市,475-8666,愛知県半田市東洋町2-1,0569-21-3111
23206,春日井市,486-8686,愛知県春日井市鳥居松町5-44,0568-81-5111
23207,豊川市,442-8601,愛知県豊川市諏訪1-1,0533-89-2111
23208,津島市,496-8686,愛知県津島市立込町2-21,0567-24-1111
23209,碧南市,447-8601,愛知県碧南市松本町28,0566-41-3311
23210,刈谷市,448-8501,愛知県刈谷市東陽町1-1,0566-23-1111
23211,豊田市,471-8501,愛知県豊田市西町3-60,0565-31-1212
23212,安城市,446-8501,愛知県安城市桜町18-23,0566-76-1111
23213,西尾市,445-8501,愛知県西尾市寄住町下田22,0563-56-2111
23214,蒲郡市,443-8601,愛知県蒲郡市旭町17-1,0533-66-1111
23215,犬山市,484-8501,愛知県犬山市大字犬山字東畑36,0568-61-1800
23216,常滑市,479-8610,愛知県常滑市飛香台3丁目3番地の5,0569-35-5111
23217,江南市,483-8701,愛知県江南市赤童子町大堀90,0587-54-1111
23219,小牧市,485-8650,愛知県小牧市堀の内3-1,0568-72-2101
23220,稲沢市,492-8269,愛知県稲沢市稲府町1,0587-32-1111
23221,新城市,441-1392,愛知県新城市字東入船115,0536-23-1111
23222,東海市,476-8601,愛知県東海市中央町1-1,0562-33-1111
23223,大府市,474-8701,愛知県大府市中央町5-70,0562-47-2111
23224,知多市,478-8601,愛知県知多市緑町1,0562-33-3151
23225,知立市,472-8666,愛知県知立市広見3-1,0566-83-1111
23226,尾張旭市,488-8666,愛知県尾張旭市東大道町原田2600-1,0561-53-2111
23227,高浜市,444-1398,愛知県高浜市青木町4-1-2,0566-52-1111
23228,岩倉市,482-8686,愛知県岩倉市栄町1-66,0587-66-1111
23229,豊明市,470-1195,愛知県豊明市新田町子持松1-1,0562-92-1111
23230,日進市,470-0192,愛知県日進市蟹甲町池下268,0561-73-7111
23231,田原市,441-3492,愛知県田原市田原町南番場30-1,0531-22-1111
23232,愛西市,496-8555,愛知県愛西市稲葉町米野308,0567-26-8111
23233,清須市,452-8569,愛知県清須市須ケ口1238,052-400-2911
23234,北名古屋市,481-8531,愛知県北名古屋市西之保清水田15,0568-22-1111
23235,弥富市,498-8501,愛知県弥富市前ケ須町南本田335,0567-65-1111
23236,みよし市,470-0295,愛知県みよし市三好町小坂50,0561-32-2111
23237,あま市,490-1292,愛知県あま市木田戌亥18-1,052-444-1001
23238,長久手市,480-1196,愛知県長久手市岩作城の内60番地1,0561-63-1111
23302,東郷町,470-0198,愛知県愛知郡東郷町大字春木字羽根穴1,0561-38-3111
23342,豊山町,480-0292,愛知県西春日井郡豊山町大字豊場字新栄260,0568-28-0001
23361,大口町,480-0144,愛知県丹羽郡大口町下小口七丁目155,0587-95-1111
23362,扶桑町,480-0102,愛知県丹羽郡扶桑町大字高雄字天道330,0587-93-1111
23424,大治町,490-1192,愛知県海部郡大治町大字馬島字大門西1-1,052-444-2711
23425,蟹江町,497-8601,愛知県海部郡蟹江町学戸3-1,0567-95-1111
23427,飛島村,490-1436,愛知県海部郡飛島村竹之郷3-1,0567-52-1231
23441,阿久比町,470-2292,愛知県知多郡阿久比町大字卯坂字殿越50,0569-48-1111
23442,東浦町,470-2192,愛知県知多郡東浦町大字緒川字政所20,0562-83-3111
23445,南知多町,470-3495,愛知県知多郡南知多町大字豊浜字貝ヶ坪18,0569-65-0711
23446,美浜町,470-2492,愛知県知多郡美浜町大字河和字北田面106,0569-82-1111
23447,武豊町,470-2392,愛知県知多郡武豊町字長尾山2,0569-72-1111
23501,幸田町,444-0192,愛知県額田郡幸田町大字菱池字元林1-1,0564-62-1111
23561,設楽町,441-2301,愛知県北設楽郡設楽町田口字辻前14,0536-62-0511
23562,東栄町,449-0292,愛知県北設楽郡東栄町大字本郷字上前畑25,0536-76-0501
23563,豊根村,449-0403,愛知県北設楽郡豊根村下黒川字蕨平2,0536-85-1311
24201,津市,514-8611,三重県津市西丸之内23-1,059-229-3105
24202,四日市市,510-8601,三重県四日市市諏訪町1-5,059-354-8104
24203,伊勢市,516-8601,三重県伊勢市岩渕1-7-29,0596-21-5520
24204,松阪市,515-8515,三重県松阪市殿町1340-1,0598-53-4312
24205,桑名市,511-8601,三重県桑名市中央町2-37,0594-24-1136
24207,鈴鹿市,513-8701,三重県鈴鹿市神戸1-18-18,059-382-1100
24208,名張市,518-0492,三重県名張市鴻之台1番町1番地,0595-63-7402
24209,尾鷲市,519-3696,三重県尾鷲市中央町10-43,0597-23-8132
24210,亀山市,519-0195,三重県亀山市本丸町577,0595-82-1111
24211,鳥羽市,517-0011,三重県鳥羽市鳥羽三丁目1番1号,0599-25-1112
24212,熊野市,519-4392,三重県熊野市井戸町796,0597-89-4111
24214,いなべ市,511-0498,三重県いなべ市北勢町阿下喜31,0594-86-7745
24215,志摩市,517-0592,三重県志摩市阿児町鵜方3098-22,0599-44-0001
24216,伊賀市,518-8501,三重県伊賀市四十九町3184,0595-22-9611
24303,木曽岬町,498-8503,三重県桑名郡木曽岬町大字西対海地251,0567-68-6100
24324,東員町,511-0295,三重県員弁郡東員町大字山田1600,0594-86-2800
24341,菰野町,510-1292,三重県三重郡菰野町大字潤田1250,059-391-1111
24343,朝日町,510-8522,三重県三重郡朝日町大字小向893,059-377-5651
24344,川越町,510-8588,三重県三重郡川越町大字豊田一色280,059-366-7113
24441,多気町,519-2181,三重県多気郡多気町相可1600,0598-38-1111
24442,明和町,515-0332,三重県多気郡明和町大字馬之上945,0596-52-7111
24443,大台町,519-2404,三重県多気郡大台町佐原750,0598-82-3781
24461,玉城町,519-0495,三重県度会郡玉城町田丸114-2,0596-58-8200
24470,度会町,516-2195,三重県度会郡度会町棚橋1215-1,0596-62-1111
24471,大紀町,519-2703,三重県度会郡大紀町滝原1610-1,0598-86-2212
24472,南伊勢町,516-0194,三重県度会郡南伊勢町五ヶ所浦3057,0599-66-1111
24543,紀北町,519-3292,三重県北牟婁郡紀北町東長島769番地1,0597-46-3113
24561,御浜町,519-5292,三重県南牟婁郡御浜町大字阿田和6120-1,05979-3-0505
24562,紀宝町,519-5701,三重県南牟婁郡紀宝町鵜殿324,0735-33-0333
25201,大津市,520-8575,滋賀県大津市御陵町3-1,077-523-1234
25202,彦根市,522-8501,滋賀県彦根市元町4-2,0749-22-1411
25203,長浜市,526-8501,滋賀県長浜市八幡東町632,0749-62-4111
25204,近江八幡市,523-8501,滋賀県近江八幡市桜宮町236,0748-33-3111
25206,草津市,525-8588,滋賀県草津市草津3-13-30,077-563-1234
25207,守山市,524-8585,滋賀県守山市吉身2-5-22,077-583-2525
25208,栗東市,520-3088,滋賀県栗東市安養寺1-13-33,077-553-1234
25209,甲賀市,528-8502,滋賀県甲賀市水口町水口6053,0748-65-0650
25210,野洲市,520-2395,滋賀県野洲市小篠原2100-1,077-587-1121
25211,湖南市,520-3288,滋賀県湖南市中央1-1,0748-72-1290
25212,高島市,520-1592,滋賀県高島市新旭町北畑565,0740-25-8000
25213,東近江市,527-8527,滋賀県東近江市八日市緑町10-5,0748-24-1234
25214,米原市,521-8501,滋賀県米原市米原1016,0749-52-1551
25383,日野町,529-1698,滋賀県蒲生郡日野町河原1-1,0748-52-1211
25384,竜王町,520-2592,滋賀県蒲生郡竜王町大字小口3,0748-58-3700
25425,愛荘町,529-1380,滋賀県愛知郡愛荘町愛知川72,0749-42-4111
25441,豊郷町,529-1169,滋賀県犬上郡豊郷町石畑375,0749-35-8111
25442,甲良町,522-0244,滋賀県犬上郡甲良町大字在士353-1,0749-38-3311
25443,多賀町,522-0341,滋賀県犬上郡多賀町大字多賀324,0749-48-8111
26100,京都市,604-8571,京都府京都市中京区寺町通御池上る上本能寺前町488,075-222-3111
26201,福知山市,620-8501,京都府福知山市字内記13-1,0773-22-6111
26202,舞鶴市,625-8555,京都府舞鶴市字北吸1044,0773-62-2300
26203,綾部市,623-8501,京都府綾部市若竹町8-1,0773-42-3280
26204,宇治市,611-8501,京都府宇治市宇治琵琶33,0774-22-3141
26205,宮津市,626-8501,京都府宮津市字柳繩手345-1,0772-22-2121
26206,亀岡市,621-8501,京都府亀岡市安町野々神8,0771-22-3131
26207,城陽市,610-0195,京都府城陽市寺田東ノ口16・17,0774-52-1111
26208,向日市,617-8665,京都府向日市寺戸町中野20,075-931-1111
26209,長岡京市,617-8501,京都府長岡京市開田1-1-1,075-951-2121
26210,八幡市,614-8501,京都府八幡市八幡園内75,075-983-1111
26211,京田辺市,610-0393,京都府京田辺市田辺80,0774-63-1122
26212,京丹後市,627-8567,京都府京丹後市峰山町杉谷889,0772-69-0001
26213,南丹市,622-8651,京都府南丹市園部町小桜町47,0771-68-0001
26214,木津川市,619-0286,京都府木津川市木津南垣外110-9,0774-72-0501
26303,大山崎町,618-8501,京都府乙訓郡大山崎町字円明寺小字夏目3,075-956-2101
26322,久御山町,613-8585,京都府久世郡久御山町島田ミスノ38,075-631-6111
26343,井手町,610-0302,京都府綴喜郡井手町大字井手小字南玉水67,0774-82-2001
26344,宇治田原町,610-0289,京都府綴喜郡宇治田原町大字立川小字坂口18番地の1,0774-88-2250
26364,笠置町,619-1303,京都府相楽郡笠置町大字笠置小字西通90-1,0743-95-2301
26365,和束町,619-1295,京都府相楽郡和束町大字釜塚小字生水14-2,0774-78-3001
26366,精華町,619-0285,京都府相楽郡精華町南稲八妻北尻70,0774-94-2004
26367,南山城村,619-1411,京都府相楽郡南山城村北大河原小字久保14-1,0743-93-0101
26407,京丹波町,622-0292,京都府船井郡京丹波町蒲生蒲生野487番地1,0771-82-0200
26463,伊根町,626-0493,京都府与謝郡伊根町字日出651,0772-32-0501
26465,与謝野町,629-2292,京都府与謝郡与謝野町字岩滝1798-1,0772-43-9000
27100,大阪市,530-8201,大阪府大阪市北区中之島1-3-20,06-6208-8181
27140,堺市,590-0078,大阪府堺市堺区南瓦町3-1,072-233-1101
27202,岸和田市,596-8510,大阪府岸和田市岸城町7-1,072-423-2121
27203,豊中市,561-8501,大阪府豊中市中桜塚3-1-1,06-6858-5050
27204,池田市,563-8666,大阪府池田市城南1-1-1,072-752-1111
27205,吹田市,564-8550,大阪府吹田市泉町1-3-40,06-6384-1231
27206,泉大津市,595-8686,大阪府泉大津市東雲町9-12,0725-33-1131
27207,高槻市,569-0067,大阪府高槻市桃園町2-1,072-674-7111
27208,貝塚市,597-8585,大阪府貝塚市畠中1-17-1,072-423-2151
27209,守口市,570-8666,大阪府守口市京阪本通2-5-5,06-6992-1221
27210,枚方市,573-8666,大阪府枚方市大垣内町2-1-20,072-841-1221
27211,茨木市,567-8505,大阪府茨木市駅前3-8-13,072-622-8121
27212,八尾市,581-0003,大阪府八尾市本町1-1-1,072-991-3881
27213,泉佐野市,598-8550,大阪府泉佐野市市場東1-295-3,072-463-1212
27214,富田林市,584-8511,大阪府富田林市常盤町1-1,0721-25-1000
27215,寝屋川市,572-8555,大阪府寝屋川市本町1-1,072-824-1181
27216,河内長野市,586-8501,大阪府河内長野市原町1-1-1,0721-53-1111
27217,松原市,580-8501,大阪府松原市阿保1-1-1,072-334-1550
27218,大東市,574-8555,大阪府大東市谷川1-1-1,072-872-2181
27219,和泉市,594-8501,大阪府和泉市府中町2-7-5,0725-41-1551
27220,箕面市,562-0003,大阪府箕面市西小路4-6-1,072-723-2121
27221,柏原市,582-8555,大阪府柏原市安堂町1-55,072-972-1501
27222,羽曳野市,583-8585,大阪府羽曳野市誉田4-1-1,072-958-1111
27223,門真市,571-8585,大阪府門真市中町1-1,06-6902-1231
27224,摂津市,566-8555,大阪府摂津市三島1-1-1,06-6383-1111
27225,高石市,592-8585,大阪府高石市加茂4-1-1,072-265-1001
27226,藤井寺市,583-8583,大阪府藤井寺市岡1-1-1,072-939-1111
27227,東大阪市,577-8521,大阪府東大阪市荒本北1-1-1,06-4309-3000
27228,泉南市,590-0592,大阪府泉南市樽井1-1-1,072-483-0001
27229,四條畷市,575-8501,大阪府四條畷市中野本町1-1,072-877-2121
27230,交野市,576-8501,大阪府交野市私部1-1-1,072-892-0121
27231,大阪狭山市,589-8501,大阪府大阪狭山市狭山1-2384-1,072-366-0011
27232,阪南市,599-0292,大阪府阪南市尾崎町35-1,072-471-5678
27301,島本町,618-8570,大阪府三島郡島本町桜井2-1-1,075-961-5151
27321,豊能町,563-0292,大阪府豊能郡豊能町余野414-1,072-739-0001
27322,能勢町,563-0392,大阪府豊能郡能勢町宿野866,072-734-0001
27341,忠岡町,595-0805,大阪府泉北郡忠岡町忠岡東1-34-1,0725-22-1122
27361,熊取町,590-0495,大阪府泉南郡熊取町野田1-1-1,072-452-1001
27362,田尻町,598-8588,大阪府泉南郡田尻町大字嘉祥寺375-1,072-466-1000
27366,岬町,599-0392,大阪府泉南郡岬町深日2000-1,072-492-2775
27381,太子町,583-8580,大阪府南河内郡太子町大字山田88,0721-98-0300
27382,河南町,585-8585,大阪府南河内郡河南町大字白木1359-6,0721-93-2500
27383,千早赤阪村,585-8501,大阪府南河内郡千早赤阪村大字水分180,0721-72-0081
28100,神戸市,650-8570,兵庫県神戸市中央区加納町6-5-1,078-331-8181
28101,東灘区,658-8570,兵庫県神戸市東灘区住吉東町5-2-1,078-841-4131
28102,灘区,657-8570,兵庫県神戸市灘区桜口町4-2-1,078-843-7001
28105,兵庫区,652-8570,兵庫県神戸市兵庫区荒田町1-21-1,078-511-2111
28106,長田区,653-8570,兵庫県神戸市長田区北町3-4-3,078-579-2311
28107,須磨区,654-8570,兵庫県神戸市須磨区大黒町4-1-1,078-731-4341
28108,垂水区,655-8570,兵庫県神戸市垂水区日向1-5-1,078-708-5151
28109,北区,651-1114,兵庫県神戸市北区鈴蘭台北町1-9-1,078-593-1111
28110,中央区,651-8570,兵庫県神戸市中央区東町115番地,078-335-7511
28111,西区,651-2295,兵庫県神戸市西区糀台5丁目4-1,078-333-3330
28201,姫路市,670-8501,兵庫県姫路市安田4-1,079-221-2111
28202,尼崎市,660-8501,兵庫県尼崎市東七松町1-23-1,06-6375-5639
28203,明石市,673-8686,兵庫県明石市中崎1-5-1,078-912-1111
28204,西宮市,662-8567,兵庫県西宮市六湛寺町10-3,0798-35-3151
28205,洲本市,656-8686,兵庫県洲本市本町3-4-10,0799-22-3321
28206,芦屋市,659-8501,兵庫県芦屋市精道町7-6,0797-31-2121
28207,伊丹市,664-8503,兵庫県伊丹市千僧1-1,072-783-1234
28208,相生市,678-8585,兵庫県相生市旭1-1-3,0791-23-7111
28209,豊岡市,668-8666,兵庫県豊岡市中央町2-4,0796-23-1111
28210,加古川市,675-8501,兵庫県加古川市加古川町北在家2000,079-421-2000
28212,赤穂市,678-0292,兵庫県赤穂市加里屋81,0791-43-3201
28213,西脇市,677-8511,兵庫県西脇市下戸田128-1,0795-22-3111
28214,宝塚市,665-8665,兵庫県宝塚市東洋町1-1,0797-71-1141
28215,三木市,673-0492,兵庫県三木市上の丸町10番30号,0794-82-2000
28216,高砂市,676-8501,兵庫県高砂市荒井町千鳥1-1-1,079-442-2101
28217,川西市,666-8501,兵庫県川西市中央町12-1,072-740-1111
28218,小野市,675-1380,兵庫県小野市中島町531,0794-63-1000
28219,三田市,669-1595,兵庫県三田市三輪2-1-1,079-563-1111
28220,加西市,675-2395,兵庫県加西市北条町横尾1000,0790-42-1110
28221,丹波篠山市,669-2397,兵庫県丹波篠山市北新町41,079-552-1111
28222,養父市,667-8651,兵庫県養父市八鹿町八鹿1675,079-662-3161
28223,丹波市,669-3692,兵庫県丹波市氷上町成松字甲賀1,0795-82-1001
28224,南あわじ市,656-0492,兵庫県南あわじ市市善光寺22番地1,0799-43-5001
28225,朝来市,669-5292,兵庫県朝来市和田山町東谷213-1,079-672-3301
28226,淡路市,656-2292,兵庫県淡路市生穂新島8,0799-64-0001
28227,宍粟市,671-2593,兵庫県宍粟市山崎町中広瀬133番地6,0790-63-3000
28228,加東市,673-1493,兵庫県加東市社50,0795-42-3301
28229,たつの市,679-4192,兵庫県たつの市龍野町富永1005-1,0791-64-3131
28301,猪名川町,666-0292,兵庫県川辺郡猪名川町上野字北畑11-1,072-766-0001
28365,多可町,679-1192,兵庫県多可郡多可町中区中村町123,0795-32-2380
28381,稲美町,675-1115,兵庫県加古郡稲美町国岡1-1,079-492-1212
28382,播磨町,675-0182,兵庫県加古郡播磨町東本荘1-5-30,079-435-0355
28442,市川町,679-2392,兵庫県神崎郡市川町西川辺165-3,0790-26-1010
28443,福崎町,679-2280,兵庫県神崎郡福崎町南田原3116-1,0790-22-0560
28446,神河町,679-3116,兵庫県神崎郡神河町寺前64,0790-34-0001
28464,太子町,671-1592,兵庫県揖保郡太子町鵤280-1,079-277-1010
28481,上郡町,678-1292,兵庫県赤穂郡上郡町大持278,0791-52-1111
28501,佐用町,679-5380,兵庫県佐用郡佐用町佐用2611-1,0790-82-2521
28585,香美町,669-6592,兵庫県美方郡香美町香住区香住870-1,0796-36-1111
28586,新温泉町,669-6792,兵庫県美方郡新温泉町浜坂2673-1,0796-82-3111
29201,奈良市,630-8580,奈良県奈良市二条大路南一丁目1-1,0742-36-4894
29202,大和高田市,635-8511,奈良県大和高田市大字大中98番地4,0745-22-1101
29203,大和郡山市,639-1198,奈良県大和郡山市北郡山町248-4,0743-53-1151
29204,天理市,632-8555,奈良県天理市川原城町605,0743-63-1001
29205,橿原市,634-8586,奈良県橿原市八木町1-1-18,0744-22-4001
29206,桜井市,633-8585,奈良県桜井市大字粟殿432-1,0744-42-9111
29207,五條市,637-8501,奈良県五條市岡口1丁目3番1号,0747-22-4001
29208,御所市,639-2298,奈良県御所市1-3,0745-62-3001
29209,生駒市,630-0288,奈良県生駒市東新町8-38,0743-74-1111
29210,香芝市,639-0292,奈良県香芝市本町1397,0745-76-2001
29211,葛城市,639-2195,奈良県葛城市柿本166,0745-69-3001
29212,宇陀市,633-0292,奈良県宇陀市榛原下井足17-3,0745-82-8000
29322,山添村,630-2344,奈良県山辺郡山添村大字大西151,0743-85-0041
29342,平群町,636-8585,奈良県生駒郡平群町吉新1-1-1,0745-45-1001
29343,三郷町,636-8535,奈良県生駒郡三郷町勢野西1-1-1,0745-73-2101
29344,斑鳩町,636-0198,奈良県生駒郡斑鳩町法隆寺西3-7-12,0745-74-1001
29345,安堵町,639-1095,奈良県生駒郡安堵町大字東安堵958,0743-57-1511
29361,川西町,636-0202,奈良県磯城郡川西町大字結崎28-1,0745-44-2211
29362,三宅町,636-0213,奈良県磯城郡三宅町大字伴堂689,0745-44-2001
29363,田原本町,636-0392,奈良県磯城郡田原本町890-1,0744-32-2901
29385,曽爾村,633-1212,奈良県宇陀郡曽爾村大字今井495-1,0745-94-2101
29386,御杖村,633-1302,奈良県宇陀郡御杖村大字菅野368,0745-95-2001
29401,高取町,635-0154,奈良県高市郡高取町大字観覚寺990-1,0744-52-3334
29402,明日香村,634-0111,奈良県高市郡明日香村大字岡55,0744-54-2001
29424,上牧町,639-0293,奈良県北葛城郡上牧町大字上牧3350,0745-76-1001
29425,王寺町,636-8511,奈良県北葛城郡王寺町王寺2-1-23,0745-73-2001
29426,広陵町,635-8515,奈良県北葛城郡広陵町大字南郷583-1,0745-55-1001
29427,河合町,636-8501,奈良県北葛城郡河合町池部1-1-1,0745-57-0200
29441,吉野町,639-3192,奈良県吉野郡吉野町大字上市80-1,0746-32-3081
29442,大淀町,638-8501,奈良県吉野郡大淀町大字桧垣本2090,0747-52-5501
29443,下市町,638-8510,奈良県吉野郡下市町大字下市1960,0747-52-0001
29444,黒滝村,638-0292,奈良県吉野郡黒滝村大字寺戸77,0747-62-2031
29446,天川村,638-0392,奈良県吉野郡天川村大字沢谷60,0747-63-0321
29447,野迫川村,648-0392,奈良県吉野郡野迫川村大字北股84,0747-37-2101
29449,十津川村,637-1333,奈良県吉野郡十津川村大字小原225-1,0746-62-0001
29450,下北山村,639-3803,奈良県吉野郡下北山村大字寺垣内983,07468-6-0001
29451,上北山村,639-3701,奈良県吉野郡上北山村大字河合330,07468-2-0001
29452,川上村,639-3594,奈良県吉野郡川上村大字迫1335-7,0746-52-0111
29453,東吉野村,633-2492,奈良県吉野郡東吉野村大字小川99,0746-42-0441
30201,和歌山市,640-8511,和歌山県和歌山市七番丁23,073-432-0001
30202,海南市,642-8501,和歌山県海南市南赤坂11,073-482-4111
30203,橋本市,648-8585,和歌山県橋本市東家1-1-1,0736-33-1111
30204,有田市,649-0392,和歌山県有田市箕島50,0737-83-1111
30205,御坊市,644-8686,和歌山県御坊市薗350,0738-22-4111
30206,田辺市,646-8545,和歌山県田辺市新屋敷町1,0739-22-5300
30207,新宮市,647-8555,和歌山県新宮市春日1-1,0735-23-3333
30208,紀の川市,649-6492,和歌山県紀の川市西大井338,0736-77-2511
30209,岩出市,649-6292,和歌山県岩出市西野209,0736-62-2141
30304,紀美野町,640-1192,和歌山県海草郡紀美野町動木287,073-489-2430
30341,かつらぎ町,649-7192,和歌山県伊都郡かつらぎ町大字丁ノ町2160,0736-22-0300
30343,九度山町,648-0198,和歌山県伊都郡九度山町大字九度山1190,0736-54-2019
30344,高野町,648-0281,和歌山県伊都郡高野町大字高野山636,0736-56-3000
30361,湯浅町,643-0002,和歌山県有田郡湯浅町大字青木668-1,0737-63-2525
30362,広川町,643-0071,和歌山県有田郡広川町大字広1500,0737-63-1122
30366,有田川町,643-0021,和歌山県有田郡有田川町下津野2018-4,0737-52-2111
30381,美浜町,644-0044,和歌山県日高郡美浜町大字和田1138-278,0738-22-4123
30382,日高町,649-1213,和歌山県日高郡日高町大字高家626,0738-63-2051
30383,由良町,649-1111,和歌山県日高郡由良町大字里1220-1,0738-65-0200
30390,印南町,649-1534,和歌山県日高郡印南町大字印南2570,0738-42-0120
30391,みなべ町,645-0002,和歌山県日高郡みなべ町芝742,0739-72-2015
30392,日高川町,649-1324,和歌山県日高郡日高川町大字土生160,0738-22-1700
30401,白浜町,649-2211,和歌山県西牟婁郡白浜町1600,0739-43-5555
30404,上富田町,649-2192,和歌山県西牟婁郡上富田町朝来763,0739-47-0550
30406,すさみ町,649-2621,和歌山県西牟婁郡すさみ町周参見4089,0739-55-2004
30421,那智勝浦町,649-5392,和歌山県東牟婁郡那智勝浦町大字築地7-1-1,0735-52-0555
30422,太地町,649-5171,和歌山県東牟婁郡太地町大字太地3767-1,0735-59-2335
30424,古座川町,649-4104,和歌山県東牟婁郡古座川町大字高池673-2,0735-72-0180
30427,北山村,647-1603,和歌山県東牟婁郡北山村大字大沼42,0735-49-2331
30428,串本町,649-3592,和歌山県東牟婁郡串本町サンゴ台690番地5,0735-62-0555
31201,鳥取市,680-8571,鳥取県鳥取市幸町71番地,0857-22-8111
31202,米子市,683-8686,鳥取県米子市加茂町1-1,0859-22-7111
31203,倉吉市,682-8611,鳥取県倉吉市葵町722,0858-22-8111
31204,境港市,684-8501,鳥取県境港市上道町3000,0859-44-2111
31302,岩美町,681-8501,鳥取県岩美郡岩美町大字浦富675-1,0857-73-1411
31325,若桜町,680-0792,鳥取県八頭郡若桜町大字若桜801-5,0858-82-2211
31328,智頭町,689-1402,鳥取県八頭郡智頭町大字智頭2072-1,0858-75-4111
31329,八頭町,680-0493,鳥取県八頭郡八頭町郡家493,0858-76-0201
31364,三朝町,682-0195,鳥取県東伯郡三朝町大字大瀬999-2,0858-43-1111
31370,湯梨浜町,682-0723,鳥取県東伯郡湯梨浜町大字久留19-1,0858-35-3111
31371,琴浦町,689-2392,鳥取県東伯郡琴浦町大字徳万591-2,0858-52-2111
31372,北栄町,689-2292,鳥取県東伯郡北栄町由良宿423-1,0858-37-3111
31384,日吉津村,689-3553,鳥取県西伯郡日吉津村大字日吉津872-15,0859-27-0211
31386,大山町,689-3211,鳥取県西伯郡大山町御来屋328,0859-54-3111
31389,南部町,683-0351,鳥取県西伯郡南部町法勝寺377-1,0859-66-3112
31390,伯耆町,689-4133,鳥取県西伯郡伯耆町吉長37-3,0859-68-3111
31401,日南町,689-5292,鳥取県日野郡日南町霞800,0859-82-1111
31402,日野町,689-4503,鳥取県日野郡日野町根雨101,0859-72-0331
31403,江府町,689-4401,鳥取県日野郡江府町大字江尾1717番地1,0859-75-2211
32201,松江市,690-8540,島根県松江市末次町86,0852-55-5555
32202,浜田市,697-8501,島根県浜田市殿町1,0855-22-2612
32203,出雲市,693-8530,島根県出雲市今市町70,0853-21-2211
32204,益田市,698-8650,島根県益田市常盤町1-1,0856-31-0100
32205,大田市,694-0064,島根県大田市大田町大田ロ1111,0854-82-1600
32206,安来市,692-8686,島根県安来市安来町878-2,0854-23-3000
32207,江津市,695-8501,島根県江津市江津町1016番地4,0855-52-2501
32209,雲南市,699-1392,島根県雲南市木次町里方521-1,0854-40-1000
32343,奥出雲町,699-1511,島根県仁多郡奥出雲町三成358-1,0854-54-1221
32386,飯南町,690-3513,島根県飯石郡飯南町下赤名880,0854-76-2211
32441,川本町,696-8501,島根県邑智郡川本町大字川本271-3,0855-72-0631
32448,美郷町,699-4692,島根県邑智郡美郷町粕渕168,0855-75-1211
32449,邑南町,696-0192,島根県邑智郡邑南町矢上6000,0855-95-1111
32501,津和野町,699-5292,島根県鹿足郡津和野町枕瀬218-18,0856-74-0021
32505,吉賀町,699-5513,島根県鹿足郡吉賀町六日市750,0856-77-1111
32525,海士町,684-0403,島根県隠岐郡海士町大字海士1490,08514-2-0111
32526,西ノ島町,684-0211,島根県隠岐郡西ノ島町大字美田600番地4,08514-6-0101
32527,知夫村,684-0102,島根県隠岐郡知夫村1065,08514-8-2211
32528,隠岐の島町,685-8585,島根県隠岐郡隠岐の島町下西78番地2,08512-2-2111
33100,岡山市,700-8544,岡山県岡山市北区大供1-1-1,086-803-1000
33101,北区,700-8544,岡山県岡山市北区大供1-1-1,086-803-1655
33102,中区,703-8544,岡山県岡山市中区浜3-7-15,086-901-1601
33103,東区,704-8555,岡山県岡山市東区西大寺南1-2-4,086-944-5006
33104,南区,702-8544,岡山県岡山市南区浦安南町495-5,086-902-3500
33202,倉敷市,710-8565,岡山県倉敷市西中新田640,086-426-3030
33203,津山市,708-8501,岡山県津山市山北520,0868-32-2052
33204,玉野市,706-8510,岡山県玉野市宇野1-27-1,0863-32-5588
33205,笠岡市,714-8601,岡山県笠岡市中央町1-1,0865-69-2121
33207,井原市,715-8601,岡山県井原市井原町311-1,0866-62-9500
33208,総社市,719-1192,岡山県総社市中央1-1-1,0866-92-8200
33209,高梁市,716-8501,岡山県高梁市松原通2043,0866-21-0200
33210,新見市,718-8501,岡山県新見市新見310-3,0867-72-6111
33211,備前市,705-8602,岡山県備前市東片上126,0869-64-3301
33212,瀬戸内市,701-4292,岡山県瀬戸内市邑久町尾張300-1,0869-22-1111
33213,赤磐市,709-0898,岡山県赤磐市下市344,086-955-1111
33214,真庭市,719-3292,岡山県真庭市久世2927-2,0867-42-1111
33215,美作市,707-8501,岡山県美作市栄町38-2,0868-72-1111
33216,浅口市,719-0295,岡山県浅口市鴨方町六条院中3050,0865-44-7000
33346,和気町,709-0495,岡山県和気郡和気町尺所555,0869-93-1121
33423,早島町,701-0303,岡山県都窪郡早島町大字前潟360-1,086-482-0611
33445,里庄町,719-0398,岡山県浅口郡里庄町大字里見1107-2,0865-64-3111
33461,矢掛町,714-1297,岡山県小田郡矢掛町矢掛3018,0866-82-1010
33586,新庄村,717-0201,岡山県真庭郡新庄村2008-1,0867-56-2626
33606,鏡野町,708-0392,岡山県苫田郡鏡野町竹田660,0868-54-2111
33622,勝央町,709-4316,岡山県勝田郡勝央町勝間田201,0868-38-3111
33623,奈義町,708-1392,岡山県勝田郡奈義町豊沢306-1,0868-36-4111
33643,西粟倉村,707-0503,岡山県英田郡西粟倉村大字影石2,0868-79-2111
33663,久米南町,709-3614,岡山県久米郡久米南町下弓削502-1,086-728-2111
33666,美咲町,709-3717,岡山県久米郡美咲町原田1735,0868-66-1111
33681,吉備中央町,716-1192,岡山県加賀郡吉備中央町豊野1-2,0866-54-1313
34100,広島市,730-8586,広島県広島市中区国泰寺町1-6-34,082-245-2111
34101,中区,730-8587,広島県広島市中区国泰寺町1-4-21,082-504-2543
34102,東区,732-8510,広島県広島市東区東蟹屋町9-38,082-568-7703
34103,南区,734-8522,広島県広島市南区皆実町1-5-44,082-250-8933
34104,西区,733-8530,広島県広島市西区福島町2-2-1,082-532-0925
34105,安佐南区,731-0193,広島県広島市安佐南区古市1-33-14,082-831-4925
34106,安佐北区,731-0292,広島県広島市安佐北区可部4-13-13,082-819-3903
34107,安芸区,736-8501,広島県広島市安芸区船越南3-4-36,082-821-4903
34108,佐伯区,731-5195,広島県広島市佐伯区海老園2-5-28,082-943-9703
34202,呉市,737-8501,広島県呉市中央4-1-6,0823-25-3100
34203,竹原市,725-8666,広島県竹原市中央5-1-35,0846-22-7719
34204,三原市,723-8601,広島県三原市港町3-5-1,0848-64-2111
34205,尾道市,722-8501,広島県尾道市久保1-15-1,0848-38-9111
34207,福山市,720-8501,広島県福山市東桜町3-5,084-921-2111
34208,府中市,726-8601,広島県府中市府川町315,0847-43-7111
34209,三次市,728-8501,広島県三次市十日市中2-8-1,0824-62-6111
34210,庄原市,727-8501,広島県庄原市中本町1-10-1,0824-73-1111
34211,大竹市,739-0692,広島県大竹市小方1-11-1,0827-59-2111
34212,東広島市,739-8601,広島県東広島市西条栄町8-29,082-422-2111
34213,廿日市市,738-8501,広島県廿日市市下平良1-11-1,0829-20-0001
34214,安芸高田市,731-0592,広島県安芸高田市吉田町吉田791,0826-42-2111
34215,江田島市,737-2297,広島県江田島市大柿町大原505,0823-43-1111
34302,府中町,735-8686,広島県安芸郡府中町大通3-5-1,082-286-3111
34304,海田町,736-8601,広島県安芸郡海田町上市14-18,082-822-2121
34307,熊野町,731-4292,広島県安芸郡熊野町中溝1-1-1,082-820-5600
34309,坂町,731-4393,広島県安芸郡坂町平成ヶ浜1-1-1,082-820-1500
34368,安芸太田町,731-3810,広島県山県郡安芸太田町戸河内784-1,0826-28-2111
34369,北広島町,731-1595,広島県山県郡北広島町有田1234,050-5812-2111
34431,大崎上島町,725-0231,広島県豊田郡大崎上島町東野6625-1,0846-65-3111
34462,世羅町,722-1192,広島県世羅郡世羅町西上原123-1,0847-22-1111
34545,神石高原町,720-1522,広島県神石郡神石高原町小畠1701番地,0847-89-3330
35201,下関市,750-8521,山口県下関市南部町1-1,083-231-1111
35202,宇部市,755-8601,山口県宇部市常盤町1-7-1,0836-31-4111
35203,山口市,753-8650,山口県山口市亀山町2-1,083-922-4111
35204,萩市,758-8555,山口県萩市江向510,0838-25-3131
35206,防府市,747-8501,山口県防府市寿町7-1,0835-23-2111
35207,下松市,744-8585,山口県下松市大手町3-3-3,0833-45-1700
35208,岩国市,740-8585,山口県岩国市今津町1-14-51,0827-29-5000
35210,光市,743-8501,山口県光市中央6-1-1,0833-72-1407
35211,長門市,759-4192,山口県長門市東深川1339-2,0837-22-2111
35212,柳井市,742-8714,山口県柳井市南町1-10-2,0820-22-2111
35213,美祢市,759-2292,山口県美祢市大嶺町東分326-1,0837-52-1110
35215,周南市,745-8655,山口県周南市岐山通1-1,0834-22-8211
35216,山陽小野田市,756-8601,山口県山陽小野田市日の出1-1-1,0836-82-1111
35305,周防大島町,742-2192,山口県大島郡周防大島町大字小松126-2,0820-74-1000
35321,和木町,740-8501,山口県玖珂郡和木町和木1-1-1,0827-52-2135
35341,上関町,742-1402,山口県熊毛郡上関町大字長島448番地,0820-62-0311
35343,田布施町,742-1592,山口県熊毛郡田布施町大字下田布施3440-1,0820-52-2111
35344,平生町,742-1195,山口県熊毛郡平生町大字平生町210-1,0820-56-7111
35502,阿武町,759-3622,山口県阿武郡阿武町大字奈古2636,08388-2-3110
36201,徳島市,770-8571,徳島県徳島市幸町2-5,088-621-5111
36202,鳴門市,772-8501,徳島県鳴門市撫養町南浜字東浜170,088-684-1111
36203,小松島市,773-8501,徳島県小松島市横須町1-1,0885-32-2111
36204,阿南市,774-8501,徳島県阿南市富岡町トノ町12-3,0884-22-1111
36205,吉野川市,776-8611,徳島県吉野川市鴨島町鴨島115-1,0883-22-2222
36206,阿波市,771-1695,徳島県阿波市市場町切幡字古田201-1,0883-36-8700
36207,美馬市,777-8577,徳島県美馬市穴吹町穴吹字九反地5,0883-52-1212
36208,三好市,778-8501,徳島県三好市池田町シンマチ1500-2,0883-72-7600
36301,勝浦町,771-4395,徳島県勝浦郡勝浦町大字久国字久保田3,0885-42-2511
36302,上勝町,771-4501,徳島県勝浦郡上勝町大字福原字下横峯3-1,0885-46-0111
36321,佐那河内村,771-4195,徳島県名東郡佐那河内村下字西ノハナ31番地,088-679-2111
36341,石井町,779-3295,徳島県名西郡石井町高川原字高川原121-1,088-674-1111
36342,神山町,771-3395,徳島県名西郡神山町神領字本野間100,088-676-1111
36368,那賀町,771-5295,徳島県那賀郡那賀町和食郷字南川104-1,0884-62-1121
36383,牟岐町,775-8570,徳島県海部郡牟岐町大字中村字本村7-4,0884-72-1111
36387,美波町,779-2395,徳島県海部郡美波町奥河内字本村18-1,0884-77-1111
36388,海陽町,775-0295,徳島県海部郡海陽町大里字上中須128,0884-73-1234
36401,松茂町,771-0295,徳島県板野郡松茂町広島字東裏30,088-699-2111
36402,北島町,771-0285,徳島県板野郡北島町中村字上地23-1,088-698-9801
36403,藍住町,771-1292,徳島県板野郡藍住町奥野字矢上前52-1,088-637-3111
36404,板野町,779-0192,徳島県板野郡板野町吹田字町南22-2,088-672-5980
36405,上板町,771-1392,徳島県板野郡上板町七條字経塚42,088-694-3111
36468,つるぎ町,779-4195,徳島県美馬郡つるぎ町貞光字東浦1-3,0883-62-3111
36489,東みよし町,779-4795,徳島県三好郡東みよし町加茂3360,0883-82-6303
37201,高松市,760-8571,香川県高松市番町1-8-15,087-839-2011
37202,丸亀市,763-8501,香川県丸亀市大手町二丁目4番21号,0877-23-2111
37203,坂出市,762-8601,香川県坂出市室町2-3-5,0877-46-3111
37204,善通寺市,765-8503,香川県善通寺市文京町2-1-1,0877-62-2121
37205,観音寺市,768-8601,香川県観音寺市坂本町一丁目1-1,0875-23-3900
37206,さぬき市,769-2195,香川県さぬき市志度5385-8,087-894-1111
37207,東かがわ市,769-2792,香川県東かがわ市湊1847-1,0879-26-1214
37208,三豊市,767-8585,香川県三豊市高瀬町下勝間2373-1,0875-73-3000
37322,土庄町,761-4192,香川県小豆郡土庄町淵崎甲1400番地2,0879-62-7000
37324,小豆島町,761-4492,香川県小豆郡小豆島町片城甲44番地95,0879-82-7000
37341,三木町,761-0692,香川県木田郡三木町大字氷上310,087-891-3300
37364,直島町,761-3110,香川県香川郡直島町1122-1,087-892-2222
37386,宇多津町,769-0292,香川県綾歌郡宇多津町1881,0877-49-0511
37387,綾川町,761-2392,香川県綾歌郡綾川町滝宮299,087-876-1111
37403,琴平町,766-8502,香川県仲多度郡琴平町榎井817-10,0877-75-6700
37404,多度津町,764-8501,香川県仲多度郡多度津町栄町三丁目3番95号,0877-33-1110
37406,まんのう町,766-0022,香川県仲多度郡まんのう町吉野下430,0877-73-0100
38201,松山市,790-8571,愛媛県松山市二番町4-7-2,089-948-6688
38202,今治市,794-8511,愛媛県今治市別宮町1-4-1,0898-32-5200
38203,宇和島市,798-8601,愛媛県宇和島市曙町1,0895-24-1111
38204,八幡浜市,796-8501,愛媛県八幡浜市北浜1-1-1,0894-22-3111
38205,新居浜市,792-8585,愛媛県新居浜市一宮町1-5-1,0897-65-1234
38206,西条市,793-8601,愛媛県西条市明屋敷164,0897-56-5151
38207,大洲市,795-8601,愛媛県大洲市大洲690-1,0893-24-2111
38210,伊予市,799-3193,愛媛県伊予市米湊820,089-982-1111
38213,四国中央市,799-0497,愛媛県四国中央市三島宮川4-6-55,0896-28-6000
38214,西予市,797-8501,愛媛県西予市宇和町卯之町3-434-1,0894-62-1111
38215,東温市,791-0292,愛媛県東温市見奈良530-1,089-964-2001
38356,上島町,794-2592,愛媛県越智郡上島町弓削下弓削210,0897-77-2500
38386,久万高原町,791-1201,愛媛県上浮穴郡久万高原町久万212,0892-21-1111
38401,松前町,791-3192,愛媛県伊予郡松前町大字筒井631,089-985-2111
38402,砥部町,791-2195,愛媛県伊予郡砥部町宮内1392,089-962-2323
38422,内子町,795-0392,愛媛県喜多郡内子町平岡甲168,0893-44-2111
38442,伊方町,796-0301,愛媛県西宇和郡伊方町湊浦1993-1,0894-38-0211
38484,松野町,798-2192,愛媛県北宇和郡松野町大字松丸343,0895-42-1111
38488,鬼北町,798-1395,愛媛県北宇和郡鬼北町大字近永800-1,0895-45-1111
38506,愛南町,798-4196,愛媛県南宇和郡愛南町城辺甲2420,0895-72-1211
39201,高知市,780-8571,高知県高知市本町5-1-45,088-822-8111
39202,室戸市,781-7185,高知県室戸市浮津25-1,0887-22-1111
39203,安芸市,784-8501,高知県安芸市矢ノ丸1-4-40,0887-34-1111
39204,南国市,783-8501,高知県南国市大そね甲2301,088-863-2111
39205,土佐市,781-1192,高知県土佐市高岡町甲2017-1,088-852-1111
39206,須崎市,785-8601,高知県須崎市山手町1-7,0889-42-2311
39208,宿毛市,788-8686,高知県宿毛市希望ヶ丘1番地,0880-62-1111
39209,土佐清水市,787-0392,高知県土佐清水市天神町11-2,0880-82-1111
39210,四万十市,787-8501,高知県四万十市中村大橋通4-10,0880-34-1111
39211,香南市,781-5292,高知県香南市野市町西野2706,0887-56-0511
39212,香美市,782-8501,高知県香美市土佐山田町宝町1-2-1,0887-53-3111
39301,東洋町,781-7414,高知県安芸郡東洋町大字生見758-3,0887-29-3111
39302,奈半利町,781-6402,高知県安芸郡奈半利町乙1659-1,0887-38-4011
39303,田野町,781-6410,高知県安芸郡田野町1828-5,0887-38-2811
39304,安田町,781-6421,高知県安芸郡安田町大字安田1850番地,0887-38-6711
39305,北川村,781-6441,高知県安芸郡北川村野友甲1530,0887-32-1212
39306,馬路村,781-6201,高知県安芸郡馬路村馬路443,0887-44-2111
39307,芸西村,781-5792,高知県安芸郡芸西村和食甲1262,0887-33-2111
39341,本山町,781-3692,高知県長岡郡本山町本山504,0887-76-2113
39344,大豊町,789-0392,高知県長岡郡大豊町津家1626,0887-72-0450
39363,土佐町,781-3492,高知県土佐郡土佐町土居194,0887-82-0480
39364,大川村,781-3703,高知県土佐郡大川村小松27-1,0887-84-2211
39386,いの町,781-2192,高知県吾川郡いの町1700-1,088-893-1111
39387,仁淀川町,781-1592,高知県吾川郡仁淀川町大崎200,0889-35-0111
39401,中土佐町,789-1301,高知県高岡郡中土佐町久礼6663-1,0889-52-2211
39402,佐川町,789-1292,高知県高岡郡佐川町甲1650-2,0889-22-7700
39403,越知町,781-1301,高知県高岡郡越知町越知甲1970,0889-26-1111
39405,梼原町,785-0695,高知県高岡郡梼原町梼原1444-1,0889-65-1111
39410,日高村,781-2194,高知県高岡郡日高村本郷61-1,0889-24-5111
39411,津野町,785-0201,高知県高岡郡津野町永野471-1,0889-55-2311
39412,四万十町,786-8501,高知県高岡郡四万十町琴平町16-17,0880-22-3111
39424,大月町,788-0302,高知県幡多郡大月町弘見2230,0880-73-1181
39427,三原村,787-0892,高知県幡多郡三原村来栖野346,0880-46-2111
39428,黒潮町,789-1992,高知県幡多郡黒潮町入野5893,0880-43-2111
40100,北九州市,803-8501,福岡県北九州市小倉北区城内1-1,093-582-2525
40101,門司区,801-8510,福岡県北九州市門司区清滝1-1-1,093-331-1881
40103,若松区,808-8510,福岡県北九州市若松区浜町1-1-1,093-761-5321
40105,戸畑区,804-8510,福岡県北九州市戸畑区千防1-1-1,093-871-1501
40106,小倉北区,803-8510,福岡県北九州市小倉北区大手町1-1,093-582-3311
40107,小倉南区,802-8510,福岡県北九州市小倉南区若園5-1-2,093-951-4111
40108,八幡東区,805-8510,福岡県北九州市八幡東区中央1-1-1,093-671-0801
40109,八幡西区,806-8510,福岡県北九州市八幡西区黒崎3-15-3,093-642-1441
40130,福岡市,810-8620,福岡県福岡市中央区天神1-8-1,092-711-4111
40131,東区,812-8653,福岡県福岡市東区箱崎2-54-1,092-631-2131
40132,博多区,812-8512,福岡県福岡市博多区博多駅前2丁目8-1,092-441-2131
40133,中央区,810-8622,福岡県福岡市中央区大名2-5-31,092-714-2131
40134,南区,815-8501,福岡県福岡市南区塩原3-25-1,092-561-2131
40135,西区,819-8501,福岡県福岡市西区内浜1-4-1,092-881-2131
40136,城南区,814-0192,福岡県福岡市城南区鳥飼6-1-1,092-822-2131
40137,早良区,814-8501,福岡県福岡市早良区百道2-1-1,092-841-2131
40202,大牟田市,836-8666,福岡県大牟田市有明町2-3,0944-41-2222
40203,久留米市,830-8520,福岡県久留米市城南町15-3,0942-30-9000
40204,直方市,822-8501,福岡県直方市殿町7-1,0949-25-2000
40205,飯塚市,820-8501,福岡県飯塚市新立岩5-5,0948-22-5500
40206,田川市,825-8501,福岡県田川市中央町1-1,0947-44-2000
40207,柳川市,832-8601,福岡県柳川市本町87-1,0944-73-8111
40210,八女市,834-8585,福岡県八女市本町647,0943-23-1111
40211,筑後市,833-8601,福岡県筑後市大字山ノ井898,0942-53-4111
40212,大川市,831-8601,福岡県大川市大字酒見256-1,0944-87-2101
40213,行橋市,824-8601,福岡県行橋市中央1-1-1,0930-25-1111
40214,豊前市,828-8501,福岡県豊前市大字吉木955,0979-82-1111
40215,中間市,809-8501,福岡県中間市中間1-1-1,093-244-1111
40216,小郡市,838-0198,福岡県小郡市小郡255-1,0942-72-2111
40217,筑紫野市,818-8686,福岡県筑紫野市石崎1-1-1,092-923-1111
40218,春日市,816-8501,福岡県春日市原町3-1-5,092-584-1111
40219,大野城市,816-8510,福岡県大野城市曙町2-2-1,092-501-2211
40220,宗像市,811-3492,福岡県宗像市東郷1-1-1,0940-36-1121
40221,太宰府市,818-0198,福岡県太宰府市観世音寺1-1-1,092-921-2121
40223,古賀市,811-3192,福岡県古賀市駅東1-1-1,092-942-1111
40224,福津市,811-3293,福岡県福津市中央1-1-1,0940-42-1111
40225,うきは市,839-1393,福岡県うきは市吉井町新治316,0943-75-3111
40226,宮若市,823-0011,福岡県宮若市宮田29-1,0949-32-0510
40227,嘉麻市,820-0292,福岡県嘉麻市岩崎1180番地1,0948-42-7414
40228,朝倉市,838-8601,福岡県朝倉市菩提寺412-2,0946-22-1111
40229,みやま市,835-8601,福岡県みやま市瀬高町小川5,0944-63-6111
40230,糸島市,819-1192,福岡県糸島市前原西一丁目1番1号,092-323-1111
40231,那珂川市,811-1292,福岡県那珂川市西隈1-1-1,092-953-2211
40341,宇美町,811-2192,福岡県糟屋郡宇美町宇美5-1-1,092-932-1111
40342,篠栗町,811-2492,福岡県糟屋郡篠栗町中央1-1-1,092-947-1111
40343,志免町,811-2292,福岡県糟屋郡志免町志免中央1-1-1,092-935-1001
40344,須恵町,811-2193,福岡県糟屋郡須恵町大字須恵771,092-932-1151
40345,新宮町,811-0192,福岡県糟屋郡新宮町緑ヶ浜1-1-1,092-962-0231
40348,久山町,811-2592,福岡県糟屋郡久山町大字久原3632,092-976-1111
40349,粕屋町,811-2392,福岡県糟屋郡粕屋町駕与丁一丁目1-1,092-938-2311
40381,芦屋町,807-0198,福岡県遠賀郡芦屋町幸町2-20,093-223-0881
40382,水巻町,807-8501,福岡県遠賀郡水巻町頃末北1-1-1,093-201-4321
40383,岡垣町,811-4233,福岡県遠賀郡岡垣町野間1-1-1,093-282-1211
40384,遠賀町,811-4392,福岡県遠賀郡遠賀町大字今古賀513,093-293-1234
40401,小竹町,820-1192,福岡県鞍手郡小竹町大字勝野3167番地1,09496-2-1212
40402,鞍手町,807-1392,福岡県鞍手郡鞍手町大字中山3705,0949-42-2111
40421,桂川町,820-0696,福岡県嘉穂郡桂川町大字土居424-1,0948-65-1100
40447,筑前町,838-0298,福岡県朝倉郡筑前町篠隈373,0946-42-3111
40448,東峰村,838-1792,福岡県朝倉郡東峰村大字宝珠山6425,0946-72-2311
40503,大刀洗町,830-1298,福岡県三井郡大刀洗町大字冨多819,0942-77-0101
40522,大木町,830-0416,福岡県三潴郡大木町大字八町牟田255-1,0944-32-1013
40544,広川町,834-0115,福岡県八女郡広川町大字新代1804-1,0943-32-1111
40601,香春町,822-1492,福岡県田川郡香春町大字高野994,0947-32-2511
40602,添田町,824-0691,福岡県田川郡添田町大字添田2151,0947-82-1231
40604,糸田町,822-1392,福岡県田川郡糸田町1975-1,0947-26-1231
40605,川崎町,827-8501,福岡県田川郡川崎町大字田原789-2,0947-72-3000
40608,大任町,824-0512,福岡県田川郡大任町大字大行事3067,0947-63-3000
40609,赤村,824-0432,福岡県田川郡赤村大字内田1188,0947-62-3000
40610,福智町,822-1292,福岡県田川郡福智町金田937-2,0947-22-0555
40621,苅田町,800-0392,福岡県京都郡苅田町富久町1-19-1,093-434-1111
40625,みやこ町,824-0892,福岡県京都郡みやこ町勝山上田960,0930-32-2511
40642,吉富町,871-8585,福岡県築上郡吉富町大字広津226-1,0979-24-1122
40646,上毛町,871-0992,福岡県築上郡上毛町大字垂水1321-1,0979-72-3111
40647,築上町,829-0392,福岡県築上郡築上町大字椎田891-2,0930-56-0300
41201,佐賀市,840-8501,佐賀県佐賀市栄町1-1,0952-24-3151
41202,唐津市,847-8511,佐賀県唐津市西城内1-1,0955-72-9111
41203,鳥栖市,841-8511,佐賀県鳥栖市宿町1118,0942-85-3500
41204,多久市,846-8501,佐賀県多久市北多久町大字小侍7-1,0952-75-2112
41205,伊万里市,848-8501,佐賀県伊万里市立花町1355-1,0955-23-2111
41206,武雄市,843-8639,佐賀県武雄市武雄町大字昭和12-10,0954-23-9111
41207,鹿島市,849-1312,佐賀県鹿島市大字納富分2643-1,0954-63-2111
41208,小城市,845-8511,佐賀県小城市三日月町長神田2312-2,0952-37-6111
41209,嬉野市,849-1492,佐賀県嬉野市塩田町大字馬場下甲1769,0954-66-3111
41210,神埼市,842-8601,佐賀県神埼市神埼町鶴3542番地1,0952-52-1111
41327,吉野ヶ里町,842-8501,佐賀県神埼郡吉野ヶ里町吉田321-2,0952-53-1111
41341,基山町,841-0204,佐賀県三養基郡基山町大字宮浦666,0942-92-2011
41345,上峰町,849-0123,佐賀県三養基郡上峰町大字坊所383-1,0952-52-2181
41346,みやき町,849-0113,佐賀県三養基郡みやき町大字東尾737-5,0942-89-1651
41387,玄海町,847-1421,佐賀県東松浦郡玄海町大字諸浦348,0955-52-2111
41401,有田町,849-4192,佐賀県西松浦郡有田町立部乙2202,0955-46-2111
41423,大町町,849-2101,佐賀県杵島郡大町町大字大町5017,0952-82-3111
41424,江北町,849-0592,佐賀県杵島郡江北町大字山口1651-1,0952-86-2111
41425,白石町,849-1192,佐賀県杵島郡白石町大字福田1247-1,0952-84-2111
41441,太良町,849-1698,佐賀県藤津郡太良町大字多良1番地6,0954-67-0311
42201,長崎市,850-8685,長崎県長崎市桜町2-22,095-822-8888
42202,佐世保市,857-8585,長崎県佐世保市八幡町1-10,0956-24-1111
42203,島原市,855-8555,長崎県島原市上の町537番地,0957-63-1111
42204,諫早市,854-8601,長崎県諫早市東小路町7-1,0957-22-1500
42205,大村市,856-8686,長崎県大村市玖島1-25,0957-53-4111
42207,平戸市,859-5192,長崎県平戸市岩の上町1508-3,0950-22-4111
42208,松浦市,859-4598,長崎県松浦市志佐町里免365,0956-72-1111
42209,対馬市,817-8510,長崎県対馬市厳原町国分1441,0920-53-6111
42210,壱岐市,811-5192,長崎県壱岐市郷ノ浦町本村触562,0920-48-1111
42211,五島市,853-8501,長崎県五島市福江町1-1,0959-72-6111
42212,西海市,857-2392,長崎県西海市大瀬戸町瀬戸樫浦郷2222,0959-37-0011
42213,雲仙市,859-1107,長崎県雲仙市吾妻町牛口名714,0957-38-3111
42214,南島原市,859-2211,長崎県南島原市西有家町里坊96-2,0957-73-6600
42307,長与町,851-2185,長崎県西彼杵郡長与町嬉里郷659-1,095-883-1111
42308,時津町,851-2198,長崎県西彼杵郡時津町浦郷274-1,095-882-2211
42321,東彼杵町,859-3808,長崎県東彼杵郡東彼杵町蔵本郷1850-6,0957-46-1111
42322,川棚町,859-3692,長崎県東彼杵郡川棚町中組郷1518-1,0956-82-3131
42323,波佐見町,859-3791,長崎県東彼杵郡波佐見町宿郷660,0956-85-2111
42383,小値賀町,857-4701,長崎県北松浦郡小値賀町笛吹郷2376-1,0959-56-3111
42391,佐々町,857-0392,長崎県北松浦郡佐々町本田原免168-2,0956-62-2101
42411,新上五島町,857-4495,長崎県南松浦郡新上五島町青方郷1585-1,0959-53-1111
43100,熊本市,860-8601,熊本県熊本市中央区手取本町1-1,096-328-2111
43101,中央区,860-8618,熊本県熊本市中央区手取本町1-1,096-328-2555
43102,東区,862-8555,熊本県熊本市東区東本町16-30,096-367-9111
43103,西区,861-5292,熊本県熊本市西区小島2丁目7-1,096-329-1111
43104,南区,861-4189,熊本県熊本市南区富合町清藤405-3,096-357-4111
43105,北区,861-0195,熊本県熊本市北区植木町岩野238-1,096-272-1111
43202,八代市,866-8601,熊本県八代市松江城町1-25,0965-33-4111
43203,人吉市,868-8601,熊本県人吉市西間下町字永溝7番地1,0966-22-2111
43204,荒尾市,864-8686,熊本県荒尾市宮内出目390,0968-63-1111
43205,水俣市,867-8555,熊本県水俣市陣内1-1-1,0966-61-1111
43206,玉名市,865-8501,熊本県玉名市岩崎163,0968-75-1111
43208,山鹿市,861-0592,熊本県山鹿市山鹿987-3,0968-44-0373
43210,菊池市,861-1392,熊本県菊池市隈府888,0968-25-7111
43211,宇土市,869-0492,熊本県宇土市浦田町51,0964-22-1111
43212,上天草市,869-3692,熊本県上天草市大矢野町上1514,0964-56-1111
43213,宇城市,869-0592,熊本県宇城市松橋町大野85,0964-32-1111
43214,阿蘇市,869-2695,熊本県阿蘇市一の宮町宮地504-1,0967-22-3111
43215,天草市,863-8631,熊本県天草市東浜町8-1,0969-23-1111
43216,合志市,861-1195,熊本県合志市竹迫2140,096-248-1111
43348,美里町,861-4492,熊本県下益城郡美里町馬場1100,0964-46-2111
43364,玉東町,869-0303,熊本県玉名郡玉東町木葉759,0968-85-3111
43367,南関町,861-0898,熊本県玉名郡南関町大字関町64,0968-53-1111
43368,長洲町,869-0198,熊本県玉名郡長洲町大字長洲2766,0968-78-3111
43369,和水町,865-0192,熊本県玉名郡和水町江田3886,0968-86-3111
43403,大津町,869-1292,熊本県菊池郡大津町大字大津1233,096-293-3111
43404,菊陽町,869-1192,熊本県菊池郡菊陽町大字久保田2800,096-232-2111
43423,南小国町,869-2492,熊本県阿蘇郡南小国町大字赤馬場143,0967-42-1111
43424,小国町,869-2592,熊本県阿蘇郡小国町大字宮原1567-1,0967-46-2111
43425,産山村,869-2703,熊本県阿蘇郡産山村山鹿488-3,0967-25-2211
43428,高森町,869-1602,熊本県阿蘇郡高森町大字高森2168,0967-62-1111
43432,西原村,861-2492,熊本県阿蘇郡西原村大字小森3259,096-279-3111
43433,南阿蘇村,869-1404,熊本県阿蘇郡南阿蘇村大字河陽1705-1,0967-67-1111
43441,御船町,861-3296,熊本県上益城郡御船町大字御船995-1,096-282-1111
43442,嘉島町,861-3192,熊本県上益城郡嘉島町上島530,096-237-1111
43443,益城町,861-2295,熊本県上益城郡益城町大字木山594,096-286-3111
43444,甲佐町,861-4696,熊本県上益城郡甲佐町豊内719-4,096-234-1111
43447,山都町,861-3592,熊本県上益城郡山都町浜町6,0967-72-1111
43468,氷川町,869-4814,熊本県八代郡氷川町島地642,0965-52-7111
43482,芦北町,869-5498,熊本県葦北郡芦北町大字芦北2015,0966-82-2511
43484,津奈木町,869-5692,熊本県葦北郡津奈木町大字小津奈木2123,0966-78-3111
43501,錦町,868-0302,熊本県球磨郡錦町大字一武1587,0966-38-1111
43505,多良木町,868-0595,熊本県球磨郡多良木町大字多良木1648,0966-42-6111
43506,湯前町,868-0621,熊本県球磨郡湯前町1989-1,0966-43-4111
43507,水上村,868-0795,熊本県球磨郡水上村大字岩野90,0966-44-0311
43510,相良村,868-8501,熊本県球磨郡相良村大字深水2500-1,0966-35-0211
43511,五木村,868-0201,熊本県球磨郡五木村甲2672-7,0966-37-2211
43512,山江村,868-0092,熊本県球磨郡山江村大字山田甲1356-1,0966-23-3111
43513,球磨村,869-6401,熊本県球磨郡球磨村大字渡丙1730,0966-32-1111
43514,あさぎり町,868-0408,熊本県球磨郡あさぎり町免田東1199,0966-45-1111
43531,苓北町,863-2503,熊本県天草郡苓北町志岐660,0969-35-1111
44201,大分市,870-8504,大分県大分市荷揚町2-31,097-534-6111
44202,別府市,874-8511,大分県別府市上野口町1-15,0977-21-1111
44203,中津市,871-8501,大分県中津市豊田町14-3,0979-22-1111
44204,日田市,877-8601,大分県日田市田島2-6-1,0973-23-3111
44205,佐伯市,876-8585,大分県佐伯市中村南町1-1,0972-22-3111
44206,臼杵市,875-8501,大分県臼杵市大字臼杵72-1,0972-63-1111
44207,津久見市,879-2435,大分県津久見市宮本町20-15,0972-82-4111
44208,竹田市,878-8555,大分県竹田市大字会々1650,0974-63-1111
44209,豊後高田市,879-0692,大分県豊後高田市是永町39-3,0978-22-3100
44210,杵築市,873-0001,大分県杵築市大字杵築377-1,0978-62-3131
44211,宇佐市,879-0492,大分県宇佐市大字上田1030-1,0978-32-1111
44212,豊後大野市,879-7198,大分県豊後大野市三重町市場1200,0974-22-1001
44213,由布市,879-5498,大分県由布市庄内町柿原302,097-582-1111
44214,国東市,873-0503,大分県国東市国東町鶴川149,0978-72-1111
44322,姫島村,872-1501,大分県東国東郡姫島村1630-1,0978-87-2111
44341,日出町,879-1592,大分県速見郡日出町2974-1,0977-73-3111
44461,九重町,879-4895,大分県玖珠郡九重町大字後野上8-1,0973-76-2111
44462,玖珠町,879-4492,大分県玖珠郡玖珠町大字帆足268-5,0973-72-1111
45201,宮崎市,880-8505,宮崎県宮崎市橘通西1-1-1,0985-25-2111
45202,都城市,885-8555,宮崎県都城市姫城町6街区21号,0986-23-2111
45203,延岡市,882-8686,宮崎県延岡市東本小路2-1,0982-34-2111
45204,日南市,887-8585,宮崎県日南市中央通1-1-1,0987-31-1100
45205,小林市,886-8501,宮崎県小林市細野300,0984-23-1111
45206,日向市,883-8555,宮崎県日向市本町10-5,0982-52-2111
45207,串間市,888-8555,宮崎県串間市大字西方5550,0987-72-1111
45208,西都市,881-8501,宮崎県西都市聖陵町2-1,0983-43-1111
45209,えびの市,889-4292,宮崎県えびの市大字栗下1292,0984-35-1111
45341,三股町,889-1995,宮崎県北諸県郡三股町五本松1-1,0986-52-1111
45361,高原町,889-4492,宮崎県西諸県郡高原町大字西麓899,0984-42-2111
45382,国富町,880-1192,宮崎県東諸県郡国富町大字本庄4800,0985-75-3111
45383,綾町,880-1392,宮崎県東諸県郡綾町大字南俣515,0985-77-1111
45401,高鍋町,884-8655,宮崎県児湯郡高鍋町大字上江8437,0983-26-2001
45402,新富町,889-1493,宮崎県児湯郡新富町大字上富田7491,0983-33-6002
45403,西米良村,881-1411,宮崎県児湯郡西米良村大字村所15,0983-36-1111
45404,木城町,884-0101,宮崎県児湯郡木城町大字高城1227-1,0983-32-4725
45405,川南町,889-1301,宮崎県児湯郡川南町大字川南13680-1,0983-27-8001
45406,都農町,889-1201,宮崎県児湯郡都農町大字川北4874-2,0983-25-5710
45421,門川町,889-0696,宮崎県東臼杵郡門川町平城東1番1号,0982-63-1140
45429,諸塚村,883-1392,宮崎県東臼杵郡諸塚村大字家代2683,0982-65-1111
45430,椎葉村,883-1601,宮崎県東臼杵郡椎葉村大字下福良1762-1,0982-67-3111
45431,美郷町,883-1101,宮崎県東臼杵郡美郷町西郷区田代1,0982-66-3600
45441,高千穂町,882-1192,宮崎県西臼杵郡高千穂町大字三田井13,0982-73-1200
45442,日之影町,882-0402,宮崎県西臼杵郡日之影町七折9079番地,0982-87-3900
45443,五ヶ瀬町,882-1295,宮崎県西臼杵郡五ヶ瀬町大字三ヶ所1670,0982-82-1700
46201,鹿児島市,892-8677,鹿児島県鹿児島市山下町11-1,099-224-1111
46203,鹿屋市,893-8501,鹿児島県鹿屋市共栄町20-1,0994-43-2111
46204,枕崎市,898-8501,鹿児島県枕崎市千代田町27,0993-72-1111
46206,阿久根市,899-1696,鹿児島県阿久根市鶴見町200,0996-73-1211
46208,出水市,899-0292,鹿児島県出水市緑町1-3,0996-63-2111
46210,指宿市,891-0497,鹿児島県指宿市十町2424,0993-22-2111
46213,西之表市,891-3193,鹿児島県西之表市西之表7612,0997-22-1111
46214,垂水市,891-2192,鹿児島県垂水市上町114,0994-32-1111
46215,薩摩川内市,895-8650,鹿児島県薩摩川内市神田町3-22,0996-23-5111
46216,日置市,899-2592,鹿児島県日置市伊集院町郡1-100,099-273-2111
46217,曽於市,899-8692,鹿児島県曽於市末吉町二之方1980,0986-76-1111
46218,霧島市,899-4394,鹿児島県霧島市国分中央3-45-1,0995-45-5111
46219,いちき串木野市,896-8601,鹿児島県いちき串木野市昭和通133-1,0996-32-3111
46220,南さつま市,897-8501,鹿児島県南さつま市加世田川畑2648,0993-53-2111
46221,志布志市,899-7192,鹿児島県志布志市志布志町志布志二丁目1番1号,099-472-1111
46222,奄美市,894-8555,鹿児島県奄美市名瀬幸町25-8,0997-52-1111
46223,南九州市,897-0392,鹿児島県南九州市知覧町郡6204,0993-83-2511
46224,伊佐市,895-2511,鹿児島県伊佐市大口里1888,0995-23-1311
46225,姶良市,899-5492,鹿児島県姶良市宮島町25,0995-66-3111
46303,三島村,892-0821,鹿児島県鹿児島市名山町12-18,099-222-3141
46304,十島村,892-0822,鹿児島県鹿児島市泉町14-15,099-222-2101
46392,さつま町,895-1803,鹿児島県薩摩郡さつま町宮之城屋地1565-2,0996-53-1111
46404,長島町,899-1498,鹿児島県出水郡長島町鷹巣1875-1,0996-86-1111
46452,湧水町,899-6292,鹿児島県姶良郡湧水町木場222,0995-74-3111
46468,大崎町,899-7305,鹿児島県曽於郡大崎町仮宿1029,099-476-1111
46482,東串良町,893-1693,鹿児島県肝属郡東串良町川西1543,0994-63-3131
46490,錦江町,893-2392,鹿児島県肝属郡錦江町城元963,0994-22-0511
46491,南大隅町,893-2501,鹿児島県肝属郡南大隅町根占川北226,0994-24-3111
46492,肝付町,893-1207,鹿児島県肝属郡肝付町新富98,0994-65-2511
46501,中種子町,891-3692,鹿児島県熊毛郡中種子町野間5186,0997-27-1111
46502,南種子町,891-3792,鹿児島県熊毛郡南種子町中之上2793-1,0997-26-1111
46505,屋久島町,891-4207,鹿児島県熊毛郡屋久島町小瀬田849番地20,0997-43-5900
46523,大和村,894-3192,鹿児島県大島郡大和村大和浜100,0997-57-2111
46524,宇検村,894-3392,鹿児島県大島郡宇検村湯湾915,0997-67-2211
46525,瀬戸内町,894-1592,鹿児島県大島郡瀬戸内町古仁屋船津23,0997-72-1111
46527,龍郷町,894-0192,鹿児島県大島郡龍郷町浦110,0997-62-3111
46529,喜界町,891-6292,鹿児島県大島郡喜界町大字湾1746,0997-65-1111
46530,徳之島町,891-7192,鹿児島県大島郡徳之島町亀津7203,0997-82-1111
46531,天城町,891-7692,鹿児島県大島郡天城町平土野2691-1,0997-85-3111
46532,伊仙町,891-8293,鹿児島県大島郡伊仙町大字伊仙1842,0997-86-3111
46533,和泊町,891-9192,鹿児島県大島郡和泊町和泊10,0997-92-1111
46534,知名町,891-9295,鹿児島県大島郡知名町大字知名307,0997-93-3111
46535,与論町,891-9301,鹿児島県大島郡与論町茶花1418-1,0997-97-3111
47201,那覇市,900-8585,沖縄県那覇市泉崎1-1-1,098-867-0111
47205,宜野湾市,901-2710,沖縄県宜野湾市野嵩1-1-1,098-893-4411
47207,石垣市,907-8501,沖縄県石垣市真栄里672番地,0980-82-9911
47208,浦添市,901-2501,沖縄県浦添市安波茶1-1-1,098-876-1234
47209,名護市,905-8540,沖縄県名護市港1-1-1,0980-53-1212
47210,糸満市,901-0392,沖縄県糸満市潮崎町1-1,098-840-8111
47211,沖縄市,904-8501,沖縄県沖縄市仲宗根町26-1,098-939-1212
47212,豊見城市,901-0292,沖縄県沖縄県豊見城市宜保一丁目１番地１,098-850-0024
47213,うるま市,904-2292,沖縄県うるま市みどり町1-1-1,098-974-3111
47214,宮古島市,906-8501,沖縄県宮古島市平良字西里1140番地,0980-72-3751
47215,南城市,901-1495,沖縄県南城市佐敷字新里1870,098-917-5309
47301,国頭村,905-1495,沖縄県国頭郡国頭村字辺土名121番地,0980-41-2101
47302,大宜味村,905-1392,沖縄県国頭郡大宜味村字大兼久157,0980-44-3001
47303,東村,905-1292,沖縄県国頭郡東村字平良804,0980-43-2201
47306,今帰仁村,905-0492,沖縄県国頭郡今帰仁村字仲宗根219,0980-56-2101
47308,本部町,905-0292,沖縄県国頭郡本部町字東5,0980-47-2101
47311,恩納村,904-0492,沖縄県国頭郡恩納村字恩納2451,098-966-1200
47313,宜野座村,904-1392,沖縄県国頭郡宜野座村字宜野座296,098-968-5111
47314,金武町,904-1292,沖縄県国頭郡金武町字金武1,098-968-2111
47315,伊江村,905-0592,沖縄県国頭郡伊江村字東江前38,0980-49-2001
47324,読谷村,904-0392,沖縄県中頭郡読谷村字座喜味2901,098-982-9200
47325,嘉手納町,904-0293,沖縄県中頭郡嘉手納町字嘉手納588,098-956-1111
47326,北谷町,904-0192,沖縄県中頭郡北谷町字桑江226,098-936-1234
47327,北中城村,901-2392,沖縄県中頭郡北中城村字喜舎場426-2,098-935-2233
47328,中城村,901-2493,沖縄県中頭郡中城村字当間585番地1,098-895-2131
47329,西原町,903-0220,沖縄県中頭郡西原町字与那城140-1,098-945-5011
47348,与那原町,901-1392,沖縄県島尻郡与那原町字上与那原16,098-945-2201
47350,南風原町,901-1195,沖縄県島尻郡南風原町字兼城686,098-889-4415
47353,渡嘉敷村,901-3592,沖縄県島尻郡渡嘉敷村字渡嘉敷183,098-987-2321
47354,座間味村,901-3496,沖縄県島尻郡座間味村座間味109,098-987-2311
47355,粟国村,901-3702,沖縄県島尻郡粟国村字東367,098-988-2016
47356,渡名喜村,901-3692,沖縄県島尻郡渡名喜村1917-3,098-989-2002
47357,南大東村,901-3895,沖縄県島尻郡南大東村字南144-1,09802-2-2001
47358,北大東村,901-3992,沖縄県島尻郡北大東村字中野218,09802-3-4001
47359,伊平屋村,905-0793,沖縄県島尻郡伊平屋村字我喜屋251,0980-46-2001
47360,伊是名村,905-0695,沖縄県島尻郡伊是名村字仲田1203,0980-45-2001
47361,久米島町,901-3193,沖縄県島尻郡久米島町字比嘉2870,098-985-7121
47362,八重瀬町,901-0492,沖縄県島尻郡八重瀬町字東風平1188,098-998-2200
47375,多良間村,906-0692,沖縄県宮古郡多良間村字仲筋99-2,0980-79-2011
47381,竹富町,907-8503,沖縄県石垣市美崎町11-1,0980-82-6191
47382,与那国町,907-1801,沖縄県八重山郡与那国町字与那国129,0980-87-2241
